"","X","Address","Cuisine","DiningStyle","Restaurant","lon","lat"
"1",0,"134 Reade Street New York, NY 10013","Contemporary American","Fine Dining","Marc Forgione",-74.0095421,40.716545
"2",1,"211 East 43rd Street Basement New York, NY 10017","Japanese","Casual Elegant","Sakagura",-73.9731567,40.7512728
"3",2,"345 Park Avenue South New York, NY 10010","Contemporary American","Casual Elegant","Upland",-73.9847793,40.7417983
"4",3,"14 East 60th Street New York, NY 10022","Mediterranean","Casual Elegant","Avra Madison",-73.9717272,40.7643204
"5",4,"377 Greenwich Street The Greenwich Hotel New York, NY 10013","Italian","Casual Dining","Locanda Verde",-74.0094471,40.7217861
"6",5,"60 East 65th Street New York, NY 10065","French","Fine Dining","Daniel - Lounge Seating",-73.9677689,40.7666933
"7",6,"135 E. 92nd Street New York, NY 10028","Italian","Home Style","Sfoglia",-73.9529119,40.7835431
"8",7,"324 Lafayette Street New York, NY 10012","Bar","Casual Elegant","Gato",-73.9952233,40.725607
"9",8,"15 W 27th St New York, NY 10001","Indian","Casual Dining","Pondicheri Cafe",-73.9882462,40.7445059
"10",9,"35 West 13th Street New York, NY 10011","Italian","Casual Dining","Da Andrea",-73.9958123,40.7362477
"11",10,"773 10th Avenue New York, NY 10019","Middle Eastern","Casual Elegant","Taboon",-73.9910064,40.7662319
"12",11,"119 1st Ave. New York, NY 10003","Korean","Casual Dining","OIJI",-73.9858314,40.7272612
"13",12,"2751 Broadway New York, NY 10025","Contemporary American","Casual Elegant","Smoke Jazz and Supper Club",-73.968266,40.8011473
"14",13,"279a Newbury Street Boston, MA 02115","American","Casual Elegant","Cafeteria Boston",-71.0840573,42.3494005
"15",14,"154 East 79th Street New York, NY 10021","Organic","Casual Elegant","Candle 79",-73.9587231,40.7746521
"16",15,"Lincoln Center Plaza New York, NY 10023","American","Fine Dining","The Grand Tier Restaurant at The Metropolitan Opera",-73.9833418,40.7723986
"17",16,"1411 2nd Ave. New York, NY 10021","Thai","Casual Dining","Up Thai",-73.9579134,40.7699636
"18",17,"72 University Place New York, NY 10003","Vegetarian","Casual Dining","Nix",-73.993674,40.7332505
"19",18,"80 Spring Street New York, NY 10012","French","Casual Dining","Balthazar",-73.9982235,40.7226041
"20",19,"251 W. 72nd Street New York, NY 10023","Sushi","Casual Dining","Sushi Yasaka",-73.983408,40.7796602
"21",20,"1295 Madison Ave New York, NY 10028","Italian","Casual Elegant","Paola's Restaurant",-73.9556092,40.784769
"22",21,"1000 Madison Avenue New York, NY 10021","Italian","Casual Elegant","Sant Ambroeus - Madison Avenue",-73.9629886,40.7754159
"23",22,"1414 6th Avenue New York, NY 10019","American","Casual Elegant","Jams - NYC",-73.9764725,40.7647485
"24",23,"4 Park Avenue New York, NY 10016","Steakhouse","Casual Dining","Wolfgang's Steak House - Park Avenue",-73.9819473,40.7468785
"25",24,"461 5th Ave New York, NY 10017","Sushi","Fine Dining","Sushi Ginza Onodera",-73.9813925,40.7522359
"26",25,"14 Christopher St New York, NY 10014","Japanese","Fine Dining","Akashi",-74.0004187,40.7338037
"27",26,"1 Central Park West New York, NY 10023","French","Casual Elegant","Nougatine at Jean Georges",-73.9815581,40.76912
"28",27,"700 west 125th st New York, NY 10027","Barbecue","Casual Dining","Dinosaur Bar-B-Que - Harlem",-73.9609373,40.8180821
"29",28,"142 Mercer New York, NY 10012","Seafood","Casual Elegant","Lure New York",-73.9983278,40.724703
"30",29,"52 Irving Place New York, NY 10003","Spanish","Casual Elegant","Casa Mono",-73.9871361,40.7358936
"31",30,"261 Madison Avenue New York, NY 10016","Japanese","Casual Elegant","Zuma Japanese Restaurant - NY",-73.9806266,40.7504872
"32",31,"68 Clinton Street New York, NY 10002","South Asian","Casual Dining","Pig and Khao",-73.9848038,40.7192718
"33",32,"1382 1st Ave New York, NY 10021","Italian","Fine Dining","Campagnola",-73.954818,40.768811
"34",33,"57 West 58th Street New York, NY 10019","American","Casual Elegant","Quality Meats",-73.9761967,40.7649625
"35",34,"3 East 52nd Street New York, NY 10022","French","Fine Dining","La Grenouille",-73.9755707,40.7596796
"36",35,"1 Central Park West New York, NY 10023","French","Fine Dining","Jean Georges",-73.9815581,40.76912
"37",36,"420 Hudson Street New York, NY 10014","Seafood","Casual Elegant","The Clam",-74.0065674,40.7303199
"38",37,"65 East 55th Street New York, NY 10022","Scandinavian","Fine Dining","Aquavit",-73.9720839,40.7608582
"39",38,"430 Lafayette Street New York, NY 10003","Vietnamese","Casual Elegant","Indochine",-73.9924719,40.7292591
"40",39,"35 East 21st Street New York, NY 10010","Contemporary Mexican","Casual Elegant","Cosme",-73.9883646,40.7395986
"41",40,"218 Lafayette Street New York, NY 10012","Italian","Casual Dining","Osteria Morini - New York",-73.9977926,40.7219929
"42",41,"402 East 78th Street New York, NY 10075","Sushi","Casual Dining","Sushi of Gari - Upper East Side",-73.9528463,40.7712807
"43",42,"200 W. 70th New York, NY 10023","French","Casual Elegant","Cafe Luxembourg",-73.9830464,40.7772611
"44",43,"199 Bowery New York, NY 10002","Tapas / Small Plates","Casual Elegant","Vandal",-73.993373,40.721138
"45",44,"167 E 33rd St. New York, NY 10016","Small Plates","Casual Dining","Cask Bar & Kitchen",-73.9789761,40.7454193
"46",45,"310 Lenox Ave. New York, NY 10027","Southern","Casual Dining","Ginnys Supper Club",-73.9449139,40.8080566
"47",46,"29 East 2nd St. New York, NY 10003","Mexican","Casual Dining","Rosie's",-73.9907748,40.7249369
"48",47,"210 Spring St. New York, NY 10012","Seafood","Fine Dining","AQUAGRILL",-74.0038433,40.7253089
"49",48,"105 Hudson Street New York, NY 10013","Japanese","Casual Elegant","Nobu Next Door",-74.0089934,40.7195264
"50",49,"125 West 55th Street New York, NY 10019","Seafood","Fine Dining","Estiatorio Milos - NY",-73.9788277,40.7637209
"51",50,"17 E 32nd St New York, NY 10016","Korean","Casual Dining","Don's Bogam BBQ & Wine Bar",-73.9843284,40.7468993
"52",51,"1166 1st avenue New York, NY 10065","Wine Bar","Casual Elegant","Felice 64 Wine Bar",-73.959485,40.762514
"53",52,"170 Thompson Street New York, NY 10012","Italian","Casual Dining","Lupa",-74.0000609,40.7276164
"54",53,"85 Avenue A New York, NY 10009","Thai","Casual Dining","Somtum Der",-73.9844149,40.7252906
"55",54,"38 East 19th Street New York, NY 10003","Tapas / Small Plates","Casual Dining","ABC Cocina",-73.9892841,40.7379803
"56",55,"180 Prince St. New York, NY 10012","Contemporary French","Casual Elegant","Raoul's",-74.0021294,40.7261809
"57",56,"166 East 82nd St., New York, NY 10028","Mexican","Casual Dining","Toloache - Upper East Side",-73.9567512,40.776382
"58",57,"660 Madison Avenue 9th Floor New York, NY 10065","American","Casual Elegant","Freds Madison at Barneys New York",-73.9711289,40.764721
"59",58,"227 Tenth Avenue New York, NY 10011","American","Casual Dining","Red Cat",-74.00419,40.748122
"60",59,"25 West 40th Street New York, NY 10018","American","Casual Elegant","Bryant Park Grill",-73.982929,40.7531718
"61",60,"30 East 20th Street New York, NY 10003","Bistro","Casual Elegant","Le Coq Rico",-73.9888939,40.7385919
"62",61,"446 Columbus Ave. New York, NY 10024","American","Casual Dining","The Milling Room",-73.9744679,40.7837474
"63",62,"1829 Robson St Vancouver, BC V6G 1E4","Italian","Casual Elegant","Tavola",-123.1356847,49.2919048
"64",63,"120 East 39th Street New York, NY 10016","Sushi","Casual Dining","Sushi Roxx",-73.9782452,40.7496271
"65",64,"570 Amsterdam Avenue New York, NY 10024","Seafood","Casual Dining","The Mermaid Inn Uptown",-73.9745316,40.7888732
"66",65,"17 Waverly Place New York, NY 10003","Creole / Cajun / Southern","Casual Dining","The Boil Waverly",-73.9942945,40.730306
"67",66,"622 Tenth Ave New York, NY 10036","American","Casual Elegant","44 & X",-73.9942049,40.7610193
"68",67,"29 East 29th Street New York, NY 10016","Italian","Casual Elegant","Marta",-73.9844689,40.7447125
"69",68,"584 Amsterdam Avenue New York, NY 10024","Mediterranean","Casual Elegant","Bodrum Turkish Mediterranean",-73.9740994,40.7893346
"70",69,"346 West 52nd Street New York, NY 10019","Korean","Casual Dining","Danji",-73.9868593,40.7640313
"71",70,"355 West 46th Street New York, NY 10010","Italian","Casual Dining","Becco",-73.9898224,40.7608056
"72",71,"1 Margaret Corbin Drive @ Fort Tryon Park New York, NY 10040","Contemporary American","Casual Elegant","New Leaf Restaurant & Bar",-73.9309233,40.8648166
"73",72,"754 5th Ave New York, NY 10019","Contemporary American","Casual Elegant","BG - Bergdorf Goodman",-73.9742096,40.7635065
"74",73,"123 West 56th Street New York, NY 10019","Indian","Fine Dining","Indian Accent",-73.9785838,40.7640838
"75",74,"1278 3rd Avenue New York, NY 10028","Steakhouse","Casual Elegant","T-BAR Steak & Lounge (Upper East Side)",-73.9600923,40.7707731
"76",75,"81 University Place New York, NY 10003","Greek","Casual Dining","Village Taverna Greek Grill",-73.9929302,40.7333834
"77",76,"251 West 50th Street New York, NY 10012","Mexican","Casual Dining","Toloache-Midtown",-73.9855741,40.7623091
"78",77,"132 9th Avenue New York, NY 10011","Bar","Casual Dining","Bathtub Gin",-74.0031842,40.743566
"79",78,"13 Barrow Street New York, NY 10014","American","Fine Dining","Annisa",-74.0023973,40.732497
"80",79,"1584 Palisades Center Dr. Space B112 West Nyack, NY 10994","Brazilian Steakhouse","Casual Elegant","Texas de Brazil - West Nyack",-73.9556981,41.0992429
"81",80,"15 East 15th Street New York, NY 10003","Sushi","Casual Elegant","15 East Restaurant",-73.9921178,40.7364457
"82",81,"206 W 118th St New York, NY 10026","American","Casual Elegant","Minton's",-73.9522994,40.8046775
"83",82,"128 East 7th Street New York, NY 10009","Greek","Casual Elegant","Pylos",-73.984146,40.7260759
"84",83,"967 Lexington Avenue New York, NY 10021","Italian","Casual Elegant","Bella Blu",-73.9628225,40.7692185
"85",84,"21 Ninth Avenue New York, NY 10014","Seafood","Casual Elegant","Catch New York",-74.0062068,40.7401801
"86",85,"259 West 4th Street New York, NY 10014","Italian","Casual Elegant","Sant Ambroeus - West Village",-74.0031344,40.7354027
"87",86,"101 Liberty St Floor 3 New York, NY 10006","Italian","Casual Elegant","Osteria della Pace - Eataly NYC Downtown",-74.011714,40.709716
"88",87,"25 Hudson St New York, NY 10013","Japanese","Casual Dining","NINJA NEW YORK",-74.009407,40.7168467
"89",88,"5 E 19th St G Floor New York, NY 10003-1107","Thai","Casual Dining","Thai Villa",-73.9906637,40.7390081
"90",89,"120 West 44th Street New York, NY 10036","French","Casual Dining","Saju Bistro",-73.9843318,40.7563739
"91",90,"70 West 3rd Street New York, NY 10012","Caribbean","Casual Dining","Negril Village",-73.9983558,40.729352
"92",91,"64 W. 10th St. New York, NY 10011","Mediterranean","Casual Elegant","Alta",-73.9982001,40.7344108
"93",92,"568 Amsterdam Avenue New York, NY 10024","Italian","Casual Elegant","Pizzeria Sirenetta",-73.9745763,40.7888077
"94",93,"355 West 16th Street New York, NY 10011","Japanese","Casual Elegant","Megu",-74.0034554,40.742291
"95",94,"88 Ninth Avenue New York, NY 10011","Italian","Casual Elegant","La Sirena at the Maritime Hotel",-74.00382,40.7424579
"96",95,"355 West 16th street New York, NY 10011","Contemporary Mexican","Casual Elegant","Bodega Negra",-74.0034554,40.742291
"97",96,"26 Little West 12th street New York, NY 10014","Contemporary American","Casual Dining","STK  NYC  Rooftop",-74.0071747,40.7398399
"98",97,"211 Waverly Place New York, NY 10014","Italian","Casual Dining","Morandi",-74.0014282,40.735317
"99",98,"142 West 65th St. New York, NY 10023","Italian","Fine Dining","Lincoln Ristorante",-73.9837555,40.7733125
"100",99,"60 Yorkville Ave Toronto, ON M4W 0A4","French","Casual Dining","Cafe Boulud",-79.3899138,43.6718611
"101",100,"97 Sullivan St New York, NY 10012","American","Casual Elegant","Blue Ribbon Brasserie",-74.0030091,40.7254507
"102",101,"141 East 48th Street New York, NY 10017","Greek","Casual Elegant","Avra Estiatorio",-73.9725187,40.7551174
"103",102,"420 East 59th St, New York, NY 10022","Italian","Casual Dining","Morso - NYC",-73.960915,40.7589123
"104",103,"1486 Second Avenue New York, NY 10075","Italian","Casual Dining","Uva",-73.9556049,40.7721589
"105",104,"232 8th Ave New York, NY 10011","Contemporary American","Casual Dining","Momofuku Nishi",-73.9988079,40.7443485
"106",105,"56 Irving Place New York, NY 10003","Afternoon Tea","Casual Elegant","Lady Mendls",-73.9870191,40.7359319
"107",106,"1460 Second Ave. New York, NY 10021","Spanish","Casual Elegant","Boqueria UES",-73.9560522,40.7715065
"108",107,"28 Cornelia Street New York, NY 10014","Italian","Home Style","Palma",-74.0023327,40.7311708
"109",108,"285 West 12th Street New York, NY 10014","Contemporary American","Casual Elegant","The Beatrice Inn",-74.0041082,40.7376817
"110",109,"848 Washington Street The Standard Hotel New York, NY 10014","American","Casual Dining","The Standard Grill",-74.0094471,40.7366138
"111",110,"61 Columbus Avenue New York, NY 10023","Mexican","Casual Dining","Rosa Mexicano by Lincoln Center",-73.9833769,40.7711376
"112",111,"181 Grand Street New York, NY 10013","Breakfast","Casual Dining","Baz Bagel & Restaurant",-73.9977569,40.719266
"113",112,"9 East First Street New York, NY 10003","Steakhouse","Casual Elegant","Bowery Meat Company",-73.9918409,40.7245665
"114",113,"34 Cooper Square New York, NY 10003","Japanese","Casual Dining","Gyu-Kaku - East Village",-73.9914601,40.728255
"115",114,"1900 Broadway New York, NY 10023","French","Casual Dining","Bar Boulud",-73.981633,40.7715384
"116",115,"243 E. 58th New York, NY 10022","Italian","Fine Dining","Felidia",-73.9651112,40.7603679
"117",116,"174 East 82nd Street New York, NY 10028","Seafood","Casual Dining","Flex Mussels - 82nd Street",-73.9565051,40.7763039
"118",117,"435 Hudson Street New York, NY 10014","Japanese","Casual Elegant","EN Japanese Brasserie",-74.0072168,40.7304988
"119",118,"34 East 52nd st New York, NY 10022","Italian","Casual Elegant","Fresco by Scotto",-73.9745136,40.7588164
"120",119,"47 W 56th St New York, NY 10019","Japanese","Casual Dining","Benihana - New York",-73.9766612,40.7633643
"121",120,"2 Columbus Circle, 9th Floor Museum of Arts and Design New York, NY 10019","Contemporary American","Fine Dining","Robert",-73.9918181,40.7686973
"122",121,"30 West 26th Street New York, NY 10010","Barbecue","Casual Dining","Hill Country Barbecue Market  Flatiron",-73.9904452,40.7442135
"123",122,"164 W. 75th St. New York, NY 10024","Italian","Casual Elegant","Cesca",-73.9798894,40.7802763
"124",123,"85 West Broadway New York, NY 10007","Contemporary American","Casual Elegant","Little Park",-74.0091396,40.715201
"125",124,"1341 Third Avenue at 77th Street New York, NY 10075","Seafood","Casual Elegant","Atlantic Grill, Eastside",-73.9583305,40.7724587
"126",125,"Pier 81 at West 41st Street New York, NY 10036","Fish","Casual Elegant","Fish Bar at North River Landing",-73.9937124,40.7581368
"127",126,"402 West 43rd Street New York, NY 10036","Italian","Casual Elegant","Esca",-73.9927457,40.7592097
"128",127,"57 West 57th Street New York, NY 10019","Steakhouse","Fine Dining","Quality Italian",-73.9767201,40.7645536
"129",128,"17 Orchard Street New York, NY 10002","British","Casual Elegant","The Fat Radish",-73.9918889,40.7152673
"130",129,"20 West 72nd Street New York, NY 10023","Contemporary American","Casual Dining","The Ribbon - NYC",-73.9774548,40.7765601
"131",130,"362 W 23rd St New York, NY 10011","Sushi","Casual Dining","Ushiwakamaru",-74.001017,40.7461343
"132",131,"252 Broome St New York, NY 10002","Pan-Asian","Casual Dining","The Lucky Bee",-73.989806,40.7181939
"133",132,"1 Fifth Avenue New York, NY 10003","Italian","Casual Dining","Otto Enoteca Pizzeria",-73.9961919,40.731903
"134",133,"12 East 12th Street New York, NY 10003","Contemporary American","Fine Dining","Gotham Bar and Grill",-73.9938232,40.7340887
"135",134,"108 Lexington Avenue New York, NY 10016","Indian","Casual Dining","Dhaba",-73.9829084,40.7424075
"136",135,"50 Rockefeller Plaza New York, NY 10020","American","Casual Dining","Del Frisco's Grille - NYC",-73.9782143,40.7595931
"137",136,"52 East 41st Street New York, NY 10017","American","Casual Elegant","Benjamin Steakhouse",-73.9790474,40.7517244
"138",137,"135 West Broadway New York, NY 10002","American","Casual Dining","Tiny's & the Bar Upstairs",-74.0079901,40.7166983
"139",138,"9 E. 18th St. New York, NY 10003","Mexican","Casual Elegant","Rosa Mexicano - Union Square",-73.9907841,40.7383202
"140",139,"32 East 10th Street New York, NY 10003","Italian","Fine Dining","Il Cantinori",-73.9932049,40.7321769
"141",140,"174 1st Ave New York, NY 10009","Tapas / Small Plates","Casual Dining","Nai Tapas",-73.9839023,40.7290286
"142",141,"948 First Avenue New York, NY 10022","French","Casual Elegant","Jubilee 1st Avenue",-73.9648174,40.755194
"143",142,"2315 Broadway New York, NY 10024","American","Casual Dining","5 Napkin Burger - Upper West Side",-73.9781294,40.7870225
"144",143,"781 5th Avenue New York, NY 10022","Italian","Fine Dining","Harry Cipriani",-73.9725243,40.7643133
"145",144,"265 Lafayette Street New York, NY 10012","Italian","Casual Dining","Sant Ambroeus SoHo",-73.9964476,40.7233607
"146",145,"1221 Avenue of the Americas New York, NY 10020","Steakhouse","Fine Dining","Del Frisco's Double Eagle Steak House - New York City",-73.98222,40.7594099
"147",146,"40 West 40th Street New York, NY 10018","Japanese","Casual Elegant","Koi - Bryant Park",-73.983765,40.7528128
"148",147,"180 Ludlow Street New York, NY 10002","French","Casual Elegant","Dirty French",-73.9872215,40.7218313
"149",148,"5 Madison Ave. New York, NY 10010","English","Casual Elegant","The Clocktower",-73.9873664,40.7412743
"150",149,"259 W 4th St New York, NY 10014","Mediterranean","Casual Dining","Extra Virgin Restaurant",-74.0031344,40.7354027
"151",150,"1900 Broadway New York, NY 10023","Italian","Casual Elegant","Cafe Fiorello",-73.981633,40.7715384
"152",151,"119 E. 18th St New York, NY 10003","Tex-Mex","Casual Dining","Javelina",-73.9874082,40.7368563
"153",152,"1285 Avenue of the Americas New York, NY 10019","Steakhouse","Fine Dining","Mastro's Steakhouse - New York City",-73.9805722,40.7611965
"154",153,"99 Hudson Street New York, NY 10013","Indian","Fine Dining","Tamarind - Tribeca",-74.0090777,40.7190816
"155",154,"349 Amsterdam Avenue New York, NY 10024","Mediterranean","Casual Elegant","TESSA",-73.9792113,40.7814331
"156",155,"501 West 51st Street New York, NY 10019","Italian","Casual Dining","Il Melograno",-73.9916131,40.7655408
"157",156,"370 Columbus Avenue New York, NY 10024","Sushi","Casual Elegant","Sushi of Gari - Columbus Avenue",-73.9764434,40.781163
"158",157,"304 East 6th St. New York, NY 10003","Mexican","Casual Elegant","Mayahuel",-73.9881794,40.7271171
"159",158,"99 Stanton Street New York, NY 10002","American","Casual Elegant","The Stanton Social",-73.9881375,40.7210822
"160",159,"41 East 20th Street New York, NY 10003","Russian","Casual Elegant","Mari Vanna",-73.988506,40.738884
"161",160,"113 7th Avenue South New York, NY 10014","Mexican","Casual Dining","Ofrenda",-74.0023804,40.733915
"162",161,"1191 First Avenue New York, NY 10065","Mexican","Casual Elegant","Maya - New York",-73.9596607,40.7631641
"163",162,"89 E 42nd St New York, NY 10017","Nordic","Casual Dining","Agern",-73.9773022,40.7524961
"164",163,"265 Elizabeth St. CI New York, NY 10012","International","Casual Elegant","The Musket Room",-73.9938218,40.7239263
"165",164,"80 Columbus Circle at 60th Street New York, NY 10023","Contemporary American","Casual Elegant","Asiate",-73.9829538,40.7690781
"166",165,"145 W. Broadway New York, NY 10013","French","Casual Elegant","The Odeon",-74.0077997,40.7169529
"167",166,"249 Columbus Avenue New York, NY 10023","Spanish","Casual Dining","Ella Kitchen & Bar",-73.9788067,40.7769826
"168",167,"42 East 58th Street New York, NY 10022","Asian Fusion","Casual Elegant","Tao Uptown",-73.9714884,40.7625589
"169",168,"9 Penn Plaza New York, NY 10001","Steakhouse","Casual Elegant","Nick & Stefs Steakhouse - New York",-73.9932303,40.7510597
"170",169,"428 Amsterdam Ave New York, NY 10024","Seafood","Casual Dining","Crave Fishbar - UWS",-73.9778554,40.7842998
"171",170,"9 Great Jones St. New York, NY 10012","Bistro","Casual Dining","Acme",-73.9940567,40.727229
"172",171,"142 West 44th Street New York, NY 10036","Italian","Casual Dining","Osteria al Doge",-73.9849106,40.7566174
"173",172,"1057 2nd Avenue New York, NY 10022","Lebanese","Casual Elegant","NAYA Mezze & Grill",-73.9662178,40.7585449
"174",173,"120 East 28th Street New York, NY 10016","Japanese","Casual Elegant","o ya - NYC",-73.9832519,40.742624
"175",174,"156 10th Avenue New York, NY 10011","American","Casual Elegant","Cookshop",-74.0054833,40.745519
"176",175,"430 Hudson Street New York, NY 10014","Contemporary American","Casual Elegant","Piora",-74.0065462,40.7306261
"177",176,"311 Church Street New York, NY 10013","Chinese","Home Style","Macao Trading Company",-74.0039187,40.7196215
"178",177,"43 West 65th Street New York, NY 10023","Dim Sum","Casual Dining","Shun Lee Cafe",-73.9813485,40.7729
"179",178,"49 West 64th St. New York, NY 10023","Seafood","Casual Elegant","Atlantic Grill Near Lincoln Center",-73.9812623,40.7722267
"180",179,"235 West 48th Street New York, NY 10036","Italian","Casual Elegant","La Masseria",-73.9858292,40.7607531
"181",180,"171 Spring St New York, NY 10012","Spanish","Casual Dining","Boqueria Soho",-74.002141,40.7249134
"182",181,"10 East 52nd Street New York, NY 10021","Mediterranean","Casual Elegant","FIG & OLIVE Fifth Avenue",-73.975653,40.7592909
"183",182,"154 West 13th St. New York, NY 10011","Seafood","Casual Dining","Flex Mussels - 13th Street",-73.9996942,40.7374001
"184",183,"1081 Third Avenue New York, NY 10065","Italian","Casual Dining","Tony's Di Napoli - UES",-73.9640825,40.7643279
"185",184,"182 8th Ave New York, NY 10011","Mexican","Casual Dining","Rocking Horse Cafe",-73.9998818,40.7428942
"186",185,"1 Penn Plaza New York, NY 10019","Italian","Casual Elegant","Lugo Cucina",-73.9924654,40.7511649
"187",186,"40 Broad Street, 2nd Level New York, NY 10004","Kosher","Casual Dining","Reserve Cut at Setai",-74.0138541,40.7038704
"188",187,"45 Rockefeller Plaza New York, NY 10011","Mediterranean","Fine Dining","Limani - NYC",-73.9785401,40.7578542
"189",188,"1167 Madison Avenue New York, NY 10020","Italian","Casual Elegant","Ristorante Morini",-73.9589599,40.7806275
"190",189,"390 Park Avenue New York, NY 10022","Italian","Casual Elegant","Casa Lever",-73.9728451,40.7595975
"191",190,"250 East 83rd Street New York, NY 10020","Italian","Fine Dining","Erminia Ristorante",-73.9536069,40.7759387
"192",191,"136 9th Ave. New York, NY 10011","Spanish","Casual Elegant","Salinas",-74.003074,40.7436696
"193",192,"1501 Broadway New York, NY 10036","American","Casual Dining","Hard Rock Cafe - Times Square",-73.9865613,40.757122
"194",193,"16 West 51st Street New York, NY 10019","Burgers","Casual Dining","Bill's Bar and Burger",-73.9774649,40.759458
"195",194,"380 Lafayette Street New York, NY 10003","French","Casual Elegant","Lafayette",-73.9937785,40.7276201
"196",195,"109 1st Avenue New York, NY 10003","Japanese","Casual Dining","Senya",-73.9861439,40.726888
"197",196,"1494 Second Ave New York, NY 10075","Italian","Casual Elegant","Lusardi's Restaurant",-73.9554181,40.7723831
"198",197,"10 Columbus Circle 3rd Floor New York, NY 11102","French","Casual Dining","Landmarc at the Time Warner Center",-73.9831903,40.7684251
"199",198,"99 Gansevoort Street New York, NY 10014","American","Casual Elegant","Untitled at the Whitney",-74.0088604,40.7396091
"200",199,"408 W 15th St. New York, NY 10011","American","Casual Dining","Kola House",-74.005795,40.7417779
"201",200,"9 West 53rd Street New York, NY 10019","Contemporary American","Casual Elegant","The Modern - Bar Room",-73.9768318,40.7609475
"202",201,"182 2nd Avenue New York, NY 10003","Italian","Casual Dining","Cacio e Pepe",-73.9859073,40.7306379
"203",202,"125 East 39th Street New York, NY 10016","Japanese","Fine Dining","Kajitsu",-73.9776856,40.7499
"204",203,"155 E 42nd Street Located in the Trylon Towers of The Chrysler Center New York, NY 10017","Steakhouse","Fine Dining","The Capital Grille - NY  Chrysler Center",-73.9697795,40.7519846
"205",204,"228 West 52nd Street New York, NY 10019","Steakhouse","Casual Elegant","Gallaghers Steakhouse - Manhattan",-73.983915,40.7627682
"206",205,"805 3rd Ave 2nd Floor New York, NY 10022","Japanese","Casual Elegant","Gyu-Kaku - Midtown",-73.9705679,40.7554239
"207",206,"86 Orchard St New York, NY 10002","Regional Mexican","Casual Dining","Casa Mezcal",-73.9901253,40.7179202
"208",207,"206 Sullivan Street New York, NY 10012","Italian","Casual Elegant","Senza Gluten",-74.000394,40.7290261
"209",208,"630 9th Avenue New York, NY 10036","American","Casual Dining","5 Napkin Burger - Hell's Kitchen",-73.9911492,40.7599157
"210",209,"99 3rd Ave. New York, NY 10003","Thai","Casual Dining","Ngam",-73.987572,40.732268
"211",210,"511 E 5TH STREET New York, NY 10009","American","Casual Dining","GG's",-73.9836585,40.7247297
"212",211,"15 East 17th Street New York, NY 10003","Malaysian","Casual Dining","Laut",-73.991051,40.737643
"213",212,"25 East 77th Street, The Mark Hotel The Mark Hotel New York, NY 10075","American","Casual Elegant","The Mark Restaurant by Jean-Georges",-73.9558204,40.7728432
"214",213,"133 East 65th St. New York, NY 10065","American","Casual Elegant","The East Pole - Kitchen and Bar",-73.9656651,40.7663461
"215",214,"754 Ninth Avenue New York, NY 10019","Mexican","Casual Dining","Hell's Kitchen",-73.9883217,40.7638338
"216",215,"75 Ninth Avenue New York, NY 10011","Seafood","Casual Dining","Cull and Pistol",-74.0060838,40.7425547
"217",216,"43 West 65th Street New York, NY 10023","Chinese","Casual Elegant","Shun Lee West",-73.9813485,40.7729
"218",217,"300 West 22nd St. New York, NY 10011","American","Casual Elegant","Foragers Table",-73.9994754,40.7446826
"219",218,"Grand Central Terminal 89 E. 42nd St. New York, NY 10017","Seafood","Casual Dining","Grand Central Oyster Bar",-73.9772294,40.7527262
"220",219,"679 Riverside Dr. New York, NY 10031","Puerto Rican","Casual Elegant","Sofrito NYC",-73.9560005,40.8264806
"221",220,"One Wall Street Court New York, NY 10005","Sushi","Casual Elegant","Haru Sushi - Wall Street",-74.0118078,40.7071269
"222",221,"70 West 68th Street New York, NY 10023","Italian","Casual Dining","Joanne Trattoria",-73.9803005,40.7745163
"223",222,"245 Park Ave S New York, NY 10003","Seafood","Casual Elegant","Gramercy Farmer and The Fish",-73.987497,40.737978
"224",223,"160 East 38th Street New York, NY 10016","Tex-Mex","Casual Dining","El Rio Grande",-73.976798,40.7480827
"225",224,"226 West 50th Street New York, NY 10019","Sushi","Casual Elegant","Natsumi Restaurant",-73.985274,40.7616963
"226",225,"1740 Broadway New York, NY 10019","French","Casual Dining","Brasserie Cognac",-73.9818607,40.7649643
"227",226,"282 Bowery New York, NY 10012","French","Casual Elegant","Cherche Midi",-73.9929992,40.7239624
"228",227,"135 E 62nd St New York, NY 10065","American","Fine Dining","Tavern 62 by David Burke",-73.9670828,40.7644424
"229",228,"54 Carmine Street New York, NY 10014","American","Casual Elegant","Market Table",-74.0037193,40.7297746
"230",229,"210 Elizabeth Street New York, NY 10012","International","Casual Elegant","PUBLIC",-73.9940806,40.722198
"231",230,"8941 Elk Grove Boulevard Elk Grove, CA 95624","French","Fine Dining","Boulevard Bistro",-121.3695784,38.4092335
"232",231,"590 Lexington Ave New York, NY 10022","French","Casual Dining","Le Relais de Venise",-73.9717686,40.7576759
"233",232,"976 Madison Avenue New York, NY 10075","Japanese","Casual Elegant","Kappo Masa",-73.9635456,40.7746615
"234",233,"One Hanover Square New York, NY 10004","Steak","Casual Elegant","Harry's Cafe and Steak",-74.009734,40.7046145
"235",234,"150 East 14th Street New York, NY 10003","American","Casual Elegant","5 Napkin Burger - Union Square",-73.9876095,40.7332027
"236",235,"40 W 53rd Street New York, NY 10019","Brazilian Steakhouse","Casual Elegant","Fogo de Chao Brazilian Steakhouse - New York",-73.9780123,40.7611228
"237",236,"325 West 51st Street New York, NY 10019","Italian","Casual Elegant","ViceVersa",-73.9867345,40.7635745
"238",237,"236 Fifth Avenue New York, NY 10001","Mediterranean","Casual Elegant","ilili",-73.9879172,40.7444211
"239",238,"85 10th Avenue New York, NY 10011","Italian","Fine Dining","Del Posto",-74.0079542,40.7432086
"240",239,"1040 Second Street Pike Richboro, PA 18954","Italian","Casual Elegant","Uva",-75.0112849,40.2171569
"241",240,"19 First Avenue New York, NY 10003","Italian","Casual Dining","Lil' Frankie's",-73.9885286,40.7236057
"242",241,"104 North End Avenue New York, NY 10282","Contemporary American","Casual Elegant","North End Grill",-74.0154465,40.7154302
"243",242,"20 West 64th Street New York, NY 10023","Mediterranean","Casual Elegant","Boulud Sud",-73.9811807,40.7715807
"244",243,"255 Vesey Street New York, NY 10282","Southern","Casual Dining","Blue Smoke Battery Park City",-74.0152919,40.715015
"245",244,"235 Columbus Ave. New York, NY 10023","Italian","Casual Dining","Parm Upper West Side",-73.9792599,40.7764404
"246",245,"259 Vesey Street New York, NY 10282","Mexican","Casual Dining","El Vez New York",-74.0154223,40.7148114
"247",246,"321 W 44th Street Unit 103 New York, NY 10036","Japanese","Casual Dining","Gyu-Kaku - Times Square",-73.9900458,40.7593023
"248",247,"208 West 70th Street New York, NY 10023","Steakhouse","Fine Dining","Lincoln Square Steak",-73.9834716,40.777398
"249",248,"157 E 28th St New York, NY 10016","Asian","Casual Dining","Momokawa",-73.981283,40.7422853
"250",249,"194 Elizabeth Street New York, NY 10012","Italian","Casual Elegant","Peasant",-73.994306,40.7217095
"251",250,"151 Essex Street New York, NY 10002","Mexican","Casual Dining","Tijuana Picnic",-73.9873657,40.7207634
"252",251,"131 Sullivan Street New York, NY 10000","American","Home Style","The Dutch",-74.0020816,40.7265836
"253",252,"36 West 26th Street New York, NY 10010","Korean","Casual Dining","Hanjan",-73.9906238,40.7442362
"254",253,"570 Hudson Street New York, NY 10014","Italian","Casual Dining","Frankies 570 Spuntino",-74.0057727,40.7356767
"255",254,"26 Little West 12th St. New York, NY 10014","Steakhouse","Casual Elegant","STK - NYC - Meatpacking",-74.0071747,40.7398399
"256",255,"210 W 118th St New York, NY 10026","American","Casual Dining","The Cecil",-73.9525238,40.8046956
"257",256,"20 Battery Place New York, NY 10004","Italian","Casual Dining","Gigino at Wagner Park",-74.0175619,40.7049736
"258",257,"928 Broadway New York, NY 10010","Italian","Casual Elegant","Obica Mozzarella Bar  Pizza e Cucina",-73.9891408,40.740032
"259",258,"825 Third Avenue at 50th Street New York, NY 10022","Mexican","Casual Elegant","Dos Caminos - Third Avenue",-73.9702492,40.7557918
"260",259,"956 2nd Avenue New York, NY 10022","American","Casual Dining","The Smith - Midtown",-73.967868,40.755165
"261",260,"229 West 43rd Street New York, NY 10036","Japanese","Casual Elegant","Haru Sushi - W 43rd",-73.9877717,40.7575067
"262",261,"31 Union Square West at 16th Street New York, NY 10003","Seafood","Casual Elegant","Blue Water Grill",-73.9910603,40.7368703
"263",262,"25 Cooper Square New York, NY 10003","Contemporary American","Casual Elegant","Narcissa Restaurant",-73.9907857,40.7279316
"264",263,"887-889 9th Ave. New York, NY 10019","Italian","Casual Elegant","Masseria dei Vini",-73.9857624,40.7684922
"265",264,"416 8th Avenue New York, NY 10001","Barbecue","Casual Dining","Brother Jimmy's BBQ",-73.9946626,40.7500758
"266",265,"130-132 W. Houston Street New York, NY 10012","Caribbean","Casual Dining","Miss Lily's",-74.0013763,40.7279618
"267",266,"14 East 60th Street New York, NY 10022","French American","Casual Elegant","Rotisserie Georgette",-73.9717272,40.7643204
"268",267,"653 Eleventh Avenue Ink 48 Hotel New York, NY 10036","Contemporary American","Casual Dining","Print Restaurant",-73.9932872,40.7602619
"269",268,"403 East 12 Street New York, NY 10009","American","Casual Dining","Hearth",-73.9831883,40.7300263
"270",269,"70 West 45th New York, NY 10036","Contemporary American","Casual Elegant","Butter Midtown",-73.9822193,40.7563079
"271",270,"305 E 92nd St New York, NY 10128","Brazilian Steakhouse","Casual Dining","Zebu Grill",-73.9483276,40.7816316
"272",271,"311 West 43rd Street New York, NY 10036","Chinese","Fine Dining","Hakkasan - New York",-73.9900017,40.7584362
"273",272,"566 Amsterdam Avenue New York, NY 10024","Belgian","Casual Dining","B. Cafe West",-73.9746213,40.7887423
"274",273,"1250 BROADWAY 39th Floor New York, NY 10001","Korean","Casual Elegant","GAONNURI",-73.98781,40.7477162
"275",274,"2331 12th Ave New York, NY 10027","Caribbean","Casual Elegant","Solomon & Kuff's Rum Hall",-73.958418,40.819969
"276",275,"376 West Broadway New York, NY 10012","Italian","Casual Elegant","Cipriani Downtown",-74.002999,40.7235635
"277",276,"209 E. 49th St. New York, NY 10017","Mexican","Casual Elegant","Pampano New York",-73.9704345,40.7550546
"278",277,"120 West 55th Street New York, NY 10019","Italian","Casual Elegant","Circo",-73.9793577,40.7630705
"279",278,"2 Harrison St. New York, NY 10013","Korean","Fine Dining","JUNGSIK",-74.0090751,40.7188267
"280",279,"152 W. 52nd Street New York, NY 10019","American","Casual Elegant","Bar Americain",-73.9818453,40.7616506
"281",280,"92 Ninth Ave New York, NY 10011","Asian Fusion","Casual Dining","Tao Downtown",-74.0038967,40.7424482
"282",281,"156 E. Second St. New York, NY 10009","Italian","Casual Dining","Supper Restaurant",-73.9852208,40.7229454
"283",282,"79 MacDougal Street New York, NY 10012","Seafood","Casual Dining","The Mermaid Oyster Bar",-74.0018619,40.7288849
"284",283,"1114 Avenue of the Americas New York, NY 10036","Steakhouse","Casual Elegant","STK - NYC - Midtown",-73.9826789,40.7546584
"285",284,"110 First Ave. New York, NY 10009","Sushi","Casual Dining","Sushi Dojo",-73.9856588,40.7266355
"286",285,"116 East 27th Street New York, NY 10016","Barbecue","Casual Dining","Blue Smoke",-73.9838006,40.7421743
"287",286,"29 Union Sq. W. New York, NY 10003","American","Casual Dining","The Coffee Shop",-73.9910286,40.7365123
"288",287,"245 Bowery New York, NY 10002","Tapas / Small Plates","Casual Elegant","Cata",-73.9927917,40.7226288
"289",288,"29 Seventh Ave. South New York, NY 10014","Italian","Casual Elegant","Rafele",-74.0041407,40.7308299
"290",289,"45 West 81st Street inside the Excelsior Hotel New York, NY 10024","Latin American","Casual Dining","Calle Ocho",-73.9741874,40.7859464
"291",290,"55 East 54th Street New York, NY 10022","Greek","Casual Elegant","NERAI",-73.97301,40.760298
"292",291,"283 Amsterdam Avenue New York, NY 10023","Italian","Casual Elegant","Salumeria Rosi",-73.9807073,40.7792892
"293",292,"65 East 54th St New York, NY 10022","Italian","Fine Dining","Cellini",-73.972689,40.7601138
"294",293,"1063 1st Avenue New York, NY 10022","Mexican","Casual Elegant","Rosa Mexicano - First Avenue",-73.9627039,40.7589658
"295",294,"253 10th Avenue New York, NY 10001","Italian","Casual Dining","Pepe Giallo",-74.0037075,40.7489719
"296",295,"1032 Lexington Avenue New York, NY 10021","Steakhouse","Fine Dining","Arlington Club",-73.9616896,40.7715671
"297",296,"111 East 22nd Street New York, NY 10010","Steak","Casual Elegant","BLT Prime",-73.9860703,40.7394136
"298",297,"1593 1st Avenue New York, NY 10028","Italian","Casual Dining","Felice 83",-73.9510928,40.7749003
"299",298,"14 Spring Street New York, NY 10012","Mediterranean","Casual Dining","Rintintin",-73.9948822,40.7211879
"300",299,"557 3rd Avenue New York, NY 10016","Contemporary American","Casual Elegant","Hendriks",-73.9764959,40.7473891
"301",300,"1000 3rd Ave Fl 6 Bloomingdale's New York, NY 10022-1230","French American","Casual Elegant","Le Train Bleu Restaurant",-73.9595859,40.7711954
"302",301,"127 East 27th Street New York, NY 10016","American","Casual Elegant","Covina",-73.9834482,40.7422553
"303",302,"363 Greenwich Street New York, NY 10013","Steakhouse","Casual Elegant","American Cut",-74.0099857,40.7190871
"304",303,"4 East 46th St. New York, NY 10017","Contemporary American","Casual Elegant","VITAE",-73.9785293,40.7555989
"305",304,"527 Broome Street New York, NY 10013","American","Home Style","Chalk Point Kitchen",-74.0041484,40.7237175
"306",305,"209 East 42nd St. New York, NY 10017","Italian","Fine Dining","Osteria Laguna",-73.973551,40.750644
"307",306,"900 Seventh Avenue New York, NY 10019","Italian","Casual Elegant","Trattoria Dell'Arte",-73.9804753,40.765358
"308",307,"222 Thompson Street New York, NY 10012","Cuban","Casual Dining","Cuba",-73.9988446,40.7290916
"309",308,"70 South Street New York, NY 10005","American","Casual Dining","Industry Kitchen",-74.0051577,40.7049756
"310",309,"100 East 63rd Street New York, NY 10065","French","Casual Elegant","Vaucluse",-73.9676044,40.7650225
"311",310,"60 2nd Avenue New York, NY 10003","Mexican","Casual Dining","The Black Ant",-73.9893207,40.7257346
"312",311,"Fifth Avenue at Central Park South New York, NY 10019","American","Casual Elegant","The Palm Court at The Plaza Hotel",-73.9730166,40.7642832
"313",312,"1 Howard St New York, NY 10013","American","Casual Dining","Nickel & Diner",-73.9993306,40.7189019
"314",313,"303 Broome St New York, NY 10002","Italian","Casual Elegant","Louie and Chan",-73.9923807,40.718652
"315",314,"609 9th Ave New York, NY 10036","Southern","Casual Dining","Chimichurri Grill - Hell's Kitchen",-73.9922942,40.7593409
"316",315,"53 Great Jones St. New York, NY 10012","Italian","Casual Elegant","Il Buco Alimentari & Vineria",-73.9925436,40.7264749
"317",316,"1470 1st Avenue New York, NY 10021","Mexican / Southwestern","Casual Dining","Canyon Road",-73.9536119,40.7705841
"318",317,"37 E. 50th St. New York, NY 10022","American","Casual Elegant","Maloney & Porcelli",-73.9746158,40.7578595
"319",318,"2450 Broadway New York, NY 10024","Italian","Casual Dining","Carmine's - 91st Street - NYC",-73.9739914,40.7910963
"320",319,"633 Third Avenue New York, NY 10017","Seafood","Casual Dining","Docks Oyster Bar and Seafood Grill",-73.9746706,40.7496256
"321",320,"88 10th Avenue New York, NY 10011","Japanese","Fine Dining","Morimoto New York",-74.0072503,40.7430827
"322",321,"316 Columbus Avenue New York, NY 10023","Italian","Casual Dining","Pappardella",-73.9778048,40.7793602
"323",322,"240 East 58th Street New York, NY 10022","Steakhouse","Fine Dining","Club A Steakhouse",-73.9655663,40.7600624
"324",323,"597 10th Ave New York, NY 10036","Steak","Casual Dining","West Side Steakhouse",-73.9951153,40.7606442
"325",324,"893 Broadway New York, NY 10003","Korean","Casual Elegant","Barn Joo",-73.9900752,40.7388418
"326",325,"22 East 54 St. New York, NY 10022","French","Casual Elegant","Papillon Bistro and Bar",-73.974326,40.760342
"327",326,"206 West Street New York, NY 10282","Steak","Fine Dining","Palm Restaurant - Tribeca",-74.0126849,40.7164671
"328",327,"420 West 13th Street New York, NY 10014","Mediterranean","Casual Elegant","FIG & OLIVE Meatpacking",-74.0071381,40.7405525
"329",328,"1184 Broadway New York, NY 10001","Steakhouse","Fine Dining","Maxwell's Chophouse",-73.9886724,40.7455244
"330",329,"1149 First Avenue New York, NY 10065","Indian","Casual Elegant","Moti Mahal Delux",-73.9604595,40.7620943
"331",330,"107 Rivington Street New York, NY 10002","Mediterranean","Casual Dining","Cafe Medi",-73.988093,40.719762
"332",331,"115 Lexington Avenue New York, NY 10016","Indian","Casual Dining","Chote Nawab",-73.982328,40.7424557
"333",332,"31 Great Jones New York, NY 10012","Mediterranean","Casual Elegant","Vic's",-73.9932196,40.7269003
"334",333,"820 Washington St. New York, NY 10014","Italian","Casual Dining","Santina",-74.0088755,40.7396351
"335",334,"1133 Broadway New York, NY 10010","Italian","Casual Dining","La Pecora Bianca",-73.9894083,40.7436986
"336",335,"214 Mulberry Street New York, NY 10012","Mediterranean","Casual Dining","Balaboosta",-73.9960178,40.7222005
"337",336,"407 West 42nd Street New York, NY 10036","Contemporary American","Casual Dining","West Bank Cafe",-73.9928064,40.7588307
"338",337,"284 Mulberry St. New York, NY 10012","Spanish","Casual Elegant","Socarrat Paella Bar - Nolita",-73.9949285,40.724435
"339",338,"551 Fifth Avenue New York, NY 10176","American","Casual Elegant","Tommy Bahama - New York",-73.9789011,40.7553752
"340",339,"163 East 33rd Street New York, NY 10016","French","Casual Dining","Le Parisien",-73.9791196,40.7454468
"341",340,"630 Ninth Avenue New York, NY 10036","French","Casual Dining","Marseille",-73.9911492,40.7599157
"342",341,"145 E 47th St New York, NY 10001","Italian","Casual Elegant","Allora",-73.972685,40.754432
"343",342,"239 E. 5th St. New York, NY 10003","Sushi","Casual Elegant","Jewel Bako",-73.9892902,40.7270664
"344",343,"2427 Broadway New York, NY 10024","Organic","Casual Elegant","Candle Cafe West",-73.9752697,40.7905977
"345",344,"546 3rd Ave New York, NY 10016","Italian","Casual Dining","Libretto's Pizza",-73.9772832,40.7473009
"346",345,"871 7th Avenue New York, NY 10019","Greek","Casual Dining","Molyvos",-73.9805666,40.7644251
"347",346,"540 Lexington Avenue New York, NY 10022","Chinese","Fine Dining","La Chine - Waldorf Astoria New York",-73.9728566,40.7562262
"348",347,"40 Avenue B New York, NY 10009","Mexican","Casual Dining","Fonda - East Village",-73.9830308,40.7228771
"349",348,"236 E. 77th St. New York, NY 10075","Italian","Casual Dining","Caffe Buon Gusto - UES",-73.9571437,40.7722725
"350",349,"Pier 61, Chelsea Piers, West 23rd Street New York, NY 10011","American","Casual Elegant","Bateaux New York",-73.999057,40.7455412
"351",350,"368 Columbus Avenue New York, NY 10024","Mexican","Casual Dining","Cafe Frida - Columbus Ave",-73.9764467,40.7809785
"352",351,"107 1st Avenue New York, NY 10003","Spanish","Casual Elegant","Huertas",-73.9862259,40.7268485
"353",352,"325 East 34th Street New York, NY 10016","Mexican","Casual Elegant","El Parador",-73.9746937,40.7445057
"354",353,"210 West 55th Street New York, NY 10019","Italian","Casual Elegant","Serafina",-73.9819603,40.7644231
"355",354,"2588 Broadway New York, NY 10025","Indian","Fine Dining","Awadh",-73.9707432,40.7955865
"356",355,"230 West 4th New York, NY 10014","Mexican","Casual Dining","Empellon Taqueria",-74.0031469,40.7341333
"357",356,"347 West 46th Street New York, NY 10036","Japanese","Fine Dining","Sushi of Gari 46",-73.9896023,40.7606762
"358",357,"48 East 12th Street New York, NY 10003","Italian","Casual Dining","Ribalta Pizza",-73.9916243,40.7332675
"359",358,"201 Park Ave S New York, NY 10003 New York, NY 10003","Contemporary American","Casual Elegant","Irvington",-73.9885554,40.7366011
"360",359,"5651 Freeport Blvd Sacramento, CA 95822","Japanese","Casual Dining","The Izakaya",-121.4974506,38.5226074
"361",360,"433 Amsterdam Avenue New York, NY 10024","Sushi","Casual Elegant","Haru Sushi - Amsterdam Ave",-73.9772473,40.784167
"362",361,"191 7th Ave New York, NY 10001","Italian","Casual Elegant","Il Bastardo",-73.9961927,40.7429175
"363",362,"307 Spring Street New York, NY 10013","Italian","Casual Elegant","Giorgione",-74.0084437,40.7261502
"364",363,"182 Lexington Avenue New York, NY 10016","Indian","Casual Elegant","Spice Symphony",-73.9811948,40.744727
"365",364,"247 Broome St New York, NY 10002","Tapas / Small Plates","Casual Dining","The Ten Bells",-73.9898473,40.7178244
"366",365,"1481 York Avenue New York, NY 10075","Greek","Casual Dining","YEFSI",-73.9510235,40.7710431
"367",366,"107 W 17th St New York, NY 10011","Italian","Fine Dining","da Umberto",-73.995827,40.739672
"368",367,"849 Avenue of the Americas New York, NY 10001","American","Casual Dining","L'Amico",-73.9899532,40.7471585
"369",368,"2272 Frederick Douglass Blvd New York, NY 10027","American","Casual Dining","Angel of Harlem",-73.9523305,40.8080077
"370",369,"840 Second Avenue New York, NY 10017","Steak","Fine Dining","Palm Restaurant - NYC Too",-73.9706949,40.7514652
"371",370,"152 W 44th Street New York, NY 10036","Barbecue","Casual Dining","Virgil's Real BBQ",-73.9851832,40.7567321
"372",371,"339 Greenwich Street New York, NY 10013","American","Casual Dining","Sarabeth's TriBeCa",-74.0101675,40.7182618
"373",372,"48 East 7th St. New York, NY 10075","Italian","Casual Dining","Via Della Pace",-73.9877458,40.7276903
"374",373,"123 West 52nd Street New York, NY 10019","Seafood","Fine Dining","Ocean Prime - New York",-73.9806295,40.7617296
"375",374,"100 Lexington Avenue New York, NY 10016","Indian","Casual Elegant","Bhatti Indian Grill",-73.983076,40.7422281
"376",375,"261 Water Street New York, NY 10038","Steakhouse","Fine Dining","MarkJoseph Steakhouse",-74.0014897,40.7083454
"377",376,"517 Lexington Avenue New York, NY 10017","American","Casual Dining","Lexington Brass",-73.9729303,40.7552978
"378",377,"56 Beaver Street New York, NY 10004","Steakhouse","Casual Elegant","Delmonico's",-74.0104198,40.7049162
"379",378,"31 West 17th Street New York, NY 10011","Mediterranean","Casual Elegant","Aldea",-73.993779,40.7387554
"380",379,"373 Park Ave South at 27th Street New York, NY 10016","Mexican","Casual Dining","Dos Caminos - Park",-73.9844506,40.7421332
"381",380,"318 North State Street Chicago, IL 60654","Gastro Pub","Casual Dining","Wollensky's Grill",-87.6285372,41.887946
"382",381,"257 Sixth Avenue New York, NY 10014","Mexican","Casual Dining","El Toro Blanco",-74.002807,40.7290259
"383",382,"77 Hudson Street New York, NY 10013","Japanese","Casual Dining","Zutto Japanese American Pub",-74.0090997,40.7184744
"384",383,"151 W 46th Street New York, NY 10036","Cuban","Casual Dining","Havana Central Times Square",-73.9841101,40.7584223
"385",384,"200 East 60th Street New York, NY 10022","Greek","Casual Dining","Anassa Taverna",-73.9658824,40.7619091
"386",385,"345 E 6th St New York, NY 10002","Fish","Casual Dining","Edwin & Neal's Fish Bar",-73.9864661,40.7266578
"387",386,"284 West 12th Street New York, NY 10014","French","Casual Elegant","Cafe Cluny",-74.0039978,40.737397
"388",387,"239 West Broadway New York, NY 10013","Modern European","Casual Elegant","Batard",-74.0057607,40.719483
"389",388,"55 3rd Avenue New York, NY 10003","American","Casual Dining","The Smith - East Village",-73.988401,40.7309849
"390",389,"78 Rivington St. New York, NY 10002","Italian","Casual Dining","Sauce",-73.9893263,40.7204716
"391",390,"1662 3rd Avenue New York, NY 10128","Greek","Casual Dining","Korali",-73.950977,40.783492
"392",391,"1150 Broadway New York, NY 10001","American","Casual Dining","The Smith - Nomad",-73.9886452,40.7442009
"393",392,"102 W. 86th St. New York, NY 10024","French","Casual Elegant","La Mirabelle",-73.9726169,40.7863558
"394",393,"43 Carmine Street New York, NY 10014","Brazilian","Casual Dining","Berimbau Do Brasil",-74.0036516,40.7300864
"395",394,"647 9th Avenue New York, NY 10036","South Asian","Casual Dining","Obao",-73.9913285,40.7606485
"396",395,"37 W 24th St New York, NY 10010","Contemporary American","Casual Elegant","Shay & Ivy",-73.9910053,40.7432901
"397",396,"11 E 31st St New York, NY 10016","American","Casual Dining","Massoni",-73.984947,40.74636
"398",397,"160 Pearl St New York, NY 10005","Irish","Casual Dining","The Full Shilling",-74.0074865,40.7057353
"399",398,"3764 Broadway (156th & 157th) New York, NY 10032","Latin American","Casual Dining","Restaurante La Libertad",-97.5156233,35.6301774
"400",399,"1161 Beach Blvd. Jacksonville Beach, FL 32250","American","Casual Dining","Jaxon Social Restaurant & Bar",-81.4023925,30.2886052
"401",400,"24 Fifth Avenue New York, NY 10011","French","Casual Elegant","Claudette",-73.9963068,40.7332413
"402",401,"202 8th Ave New York, NY 10011","Italian","Casual Dining","Intermezzo",-73.9994559,40.7435209
"403",402,"1057-59 Lexington Avenue New York, NY 10021","French","Casual Elegant","Orsay",-73.9604753,40.7723975
"404",403,"131 Rivington Street New York, NY 10002","Continental","Casual Dining","Schiller's Liquor Bar",-73.986687,40.719347
"405",404,"101 7th Ave New York, NY 10011","American","Casual Elegant","Freds Downtown at Barneys New York",-73.9982825,40.7399493
"406",405,"173 Mott Street New York, NY 10013","Italian","Casual Dining","Pepe Rosso Social",-73.9962484,40.7200503
"407",406,"505 Columbus Avenue New York, NY 10024","Greek","Casual Dining","Kefi",-73.972622,40.785293
"408",407,"475 Columbus Ave New York, NY 10024","Italian","Casual Elegant","83rd Street Tarallucci E Vino",-73.973347,40.784298
"409",408,"125 W 43rd St New York, NY 10036","Belgian","Casual Dining","BXL Cafe",-73.9846095,40.7561118
"410",409,"240 W. 14th St. New York, NY 10011","Italian","Casual Dining","Crispo",-74.001806,40.7391368
"411",410,"637 hudson st New York, NY 10014","American","Casual Dining","High Street on Hudson",-74.0057417,40.7388774
"412",411,"310 West 38th Street New York, NY 10010","Italian","Casual Dining","Casa Nonna - Midtown",-73.9927853,40.7549995
"413",412,"158 East 48th Street New York, NY 10017","Seafood","Fine Dining","Sea Fire Grill",-73.9722216,40.7546919
"414",413,"13 E 13th St New York, NY 10003","Wine Bar","Casual Dining","Corkbuzz Wine Studio",-73.9931414,40.7350747
"415",414,"189 9th Ave New York, NY 10018","Mexican","Casual Dining","Fonda Chelsea",-74.0023376,40.7455599
"416",415,"1695 2nd Ave (Corner of 88th Street & 2nd Ave) New York, NY 10128","French","Casual Dining","Cafe D' Alsace",-73.9507958,40.7791877
"417",416,"24 E 81st Street New York, NY 10028","Italian","Fine Dining","Sistina",-73.9616664,40.7775964
"418",417,"73 West 71st Street New York, NY 10023","Mexican","Casual Dining","Santa Fe",-73.9788166,40.7767896
"419",418,"49 Clinton Street New York, NY 10002","Japanese","Casual Dining","Azasu",-73.9849802,40.7197583
"420",419,"622 Third Avenue New York, NY 10017","Asian","Casual Elegant","Zengo - NYC",-73.9756083,40.7497508
"421",420,"85 10th Avenue New York, NY 10011","Tapas / Small Plates","Casual Dining","TORO",-74.0079542,40.7432086
"422",421,"234 West 44th Street New York, NY 10036","American","Casual Elegant","Sardi's",-73.9875989,40.7577738
"423",422,"2168 Frederick Douglass Blvd. New York, NY 10026","Italian","Casual Elegant","Lido",-73.9546798,40.8048926
"424",423,"103 West 77th Street New York, NY 10024","American","Fine Dining","Dovetail",-73.9766246,40.7809351
"425",424,"132 West 44th Street New York, NY 10036","Contemporary American","Casual Dining","The Lambs Club",-73.9846347,40.7565062
"426",425,"3950 10th Ave New York, NY 10034","Italian","Casual Elegant","Viale NYC",-73.9171718,40.8673306
"427",426,"35 Downing St. New York, NY 10014","Contemporary American","Casual Elegant","Blue Ribbon Bakery Kitchen",-74.0037767,40.7293862
"428",427,"23 E 40th St. New York, NY 10016","American","Casual Elegant","Benjamin Prime",-73.9799774,40.7514372
"429",428,"180 Columbus Avenue New York, NY 10023","Italian","Casual Elegant","Il Violino",-73.980872,40.775067
"430",429,"120 West 49th Street New York, NY 10020","Seafood","Casual Elegant","Oceana",-73.9819757,40.7595452
"431",430,"102 East 22nd Street New York, NY 10010","Italian","Casual Elegant","Novita - New York City, Manhattan",-73.9864322,40.7391236
"432",431,"30 Hudson Street New York, NY 10013","Japanese","Casual Elegant","brushstroke",-74.0089115,40.7165862
"433",432,"675 Hudson Street at 14th Street New York, NY 10014","Mexican","Casual Elegant","Dos Caminos  Meatpacking",-74.005458,40.7404266
"434",433,"551 5th Ave (entrance on 45th St.) New York, NY 10017","Steakhouse","Fine Dining","Morton's The Steakhouse - Midtown Manhattan",-73.9738579,40.7530361
"435",434,"299 10th Ave New York, NY 10001","Argentinean","Casual Elegant","Porteno Restaurant",-74.002523,40.750507
"436",435,"10 Downing New York, NY 10014","Contemporary American","Casual Dining","Cafe Clover",-74.0027849,40.729283
"437",436,"1431 First Ave New York, NY 10021","Italian","Casual Dining","Numero 28 Pizzeria Napoletana 1st Ave.",-73.955184,40.769396
"438",437,"2340 Broadway New York, NY 10024","French","Casual Dining","French Roast Uptown",-73.9765902,40.7876417
"439",438,"123 W. 44th St. New York, NY 10036","French","Casual Dining","Cafe Un Deux Trois",-73.984126,40.7567949
"440",439,"611 Hudson St. New York, NY 10014","Israeli","Casual Dining","Bar Bolonat",-74.0058653,40.7376862
"441",440,"60 West 55th Street New York, NY 10019","French","Casual Elegant","Benoit Restaurant and Bar",-73.9773402,40.7624832
"442",441,"96 2nd Avenue New York, NY 10003","Seafood","Casual Dining","The Mermaid Inn East Village",-73.9884429,40.7269975
"443",442,"557 Lexington Ave New York, NY 10022","Contemporary American","Casual Dining","The National Bar & Dining Rooms",-73.971947,40.756593
"444",443,"44 West 56th Street New York, NY 10019","Steak","Fine Dining","Uncle Jack's Steakhouse - Midtown 56th Street",-73.976695,40.762982
"445",444,"1567 Broadway W Hotel Times Square New York, NY 10036","Mexican","Casual Dining","Dos Caminos - Times Square",-73.9856577,40.7568244
"446",445,"361 West 46th Street Between 8th Ave. and 9th Ave. New York, NY 10036","Italian","Casual Elegant","Lattanzi",-73.9916968,40.7597346
"447",446,"131 E. 54th Street New York, NY 10169","Steakhouse","Casual Elegant","Bobby Van's Steakhouse - 54th Street",-73.970949,40.759345
"448",447,"206 W 79th Street New York, NY 10024","Italian","Casual Elegant","Coppola's West",-73.9789685,40.7831435
"449",448,"260 Sixth Ave. New York, NY 10014","Italian","Casual Elegant","Da Silvano",-74.002161,40.728903
"450",449,"14 Christopher Street New York, NY 10014","French","Casual Dining","Dominique Bistro",-74.0004187,40.7338037
"451",450,"25 West Houston New York, NY 10012","American","Casual Dining","Burger and Barrel",-73.9980059,40.7257133
"452",451,"37 W.17th Street New York, NY 10011","Japanese","Casual Elegant","Yakiniku Futago",-73.9940632,40.7389154
"453",452,"1535 Broadway New York, NY 10036","Contemporary American","Casual Elegant","The View Restaurant",-73.9862475,40.7586115
"454",453,"53 Bond Street New York, NY 10012","American","Casual Dining","Mile End Delicatessen",-73.9927614,40.7257253
"455",454,"324 East 57th Street New York, NY 10022","Chinese","Fine Dining","MR CHOW - 57th",-73.9644708,40.7587261
"456",455,"513 E. 6th St. New York, NY 10009","Argentinean","Casual Dining","Buenos Aires",-73.9830672,40.7252832
"457",456,"43 W. 24th St. New York, NY 10010","Latin American","Casual Elegant","Raymi",-73.9912968,40.7433741
"458",457,"1553 2nd Avenue New York, NY 10075","Thai","Fine Dining","Jaiya - UES",-73.9545041,40.7745221
"459",458,"187 Orchard St. New York, NY 10002","Sushi","Casual Dining","Blue Ribbon Sushi Izakaya",-73.988438,40.722135
"460",459,"155 W 33rd St New York, NY 10001","American","Casual Dining","Hooters on 33rd",-73.9904585,40.7502921
"461",460,"156 38th Street New York, NY 10018","Latin / Spanish","Casual Dining","Jimmy's NYC",-73.9884639,40.7532456
"462",461,"100 W. 67th St. New York, NY 10023","Mediterranean","Casual Dining","Nick & Toni's Cafe Manhattan",-73.9815771,40.7743109
"463",462,"190 Duane St New York, NY 10013","Wine Bar","Casual Dining","Graffiti Earth at Duane Street Hotel",-74.0103846,40.7173375
"464",463,"1109 First Ave New York, NY 10065","Italian","Casual Dining","Tiella",-73.9614485,40.7608128
"465",464,"160 7th Avenue New York, NY 10011","French","Casual Dining","Le Singe Vert",-73.9973861,40.7420828
"466",465,"155 East 55th Street New York, NY 10022","Chinese","Casual Elegant","Shun Lee Palace",-73.9690693,40.7594505
"467",466,"323 Greenwich Street New York, NY 10013","Italian","Casual Dining","Gigino Trattoria",-74.0104631,40.7172655
"468",467,"65 Saint Marks Place New York, NY 10003","French","Casual Dining","Jules Bistro",-73.9860752,40.728169
"469",468,"123 E 110th St New York, NY 10029","Italian","Casual Dining","Nocciola Pizzeria e Trattoria",-73.9451555,40.7953442
"470",469,"1 Tavern on the Green New York, NY 10023","American","Casual Elegant","Tavern on the Green",-73.9800645,40.7769059
"471",470,"167 Orchard St New York, NY 10002","Italian","Casual Dining","Pizza Beach LES",-73.9887305,40.7213392
"472",471,"102 Norfolk Street New York, NY 10002","French","Casual Elegant","Saro Bistro",-73.9869431,40.7187348
"473",472,"325 West 42nd Street New York, NY 10036","Greek","Casual Dining","Dafni Greek Taverna",-73.9908489,40.7579721
"474",473,"44 West 63rd Street The Empire Hotel New York, NY 10023","Seafood","Casual Elegant","Ed's Chowder House",-73.9800645,40.7769059
"475",474,"1600 3rd Avenue New York, NY 10128","Steakhouse","Fine Dining","Parlor Steak & Fish",-73.9525044,40.7813744
"476",475,"37 West 26th St. New York, NY 10010","American","Casual Dining","The Flatiron Room",-73.9904546,40.7445724
"477",476,"259 W 19th St. New York, NY 10011","Spanish","Casual Elegant","Socarrat - Chelsea",-73.9995099,40.7427162
"478",477,"485 5th Avenue New York, NY 10017","American","Casual Dining","The Shop - Andaz Fifth Avenue",-73.9810327,40.7528879
"479",478,"60 Thompson Street New York, NY 10012","Italian","Casual Dining","Sessanta",-74.0031077,40.7239619
"480",479,"714 Seventh Avenue (inside Renaissance Hotel) Two Times Square New York, NY 10036","Contemporary American","Casual Dining","R Lounge at Two Times Square",-73.9844722,40.759011
"481",480,"45 Rockefeller Plaza New York, NY 10011","French American","Casual Elegant","Brasserie Ruhlmann",-73.9785401,40.7578542
"482",481,"250 Park Ave South New York, NY 10003","Mediterranean","Casual Dining","Barbounia",-73.9881589,40.7382513
"483",482,"121 Hudson Street New York, NY 10013","Chinese","Fine Dining","MR CHOW - TriBeca",-74.0089466,40.7201545
"484",483,"172 Orchard Street New York, NY 10002","Mexican","Casual Dining","Mission Cantina",-73.9882485,40.7214626
"485",484,"600 West 218th Street New York, NY 10034","American","Casual Dining","Indian Road Cafe",-73.9183464,40.8728492
"486",485,"550 Madison Ave New York, NY 10022","Kosher","Casual Dining","Prime Grill",-73.9733853,40.761523
"487",486,"1568 Second Avenue New York, NY 10028","Bar / Lounge / Bottle Service","Casual Dining","Comic Strip Live Comedy Club",-73.9536519,40.7748084
"488",487,"7 9th avenue New York, NY 10011","Italian","Casual Elegant","Serafina Meatpacking",-74.006657,40.739633
"489",488,"1703 2nd Avenue New York, NY 10128","Contemporary American","Casual Elegant","The Writing Room",-73.9509231,40.7794476
"490",489,"246 E. 51st Street New York, NY 10022","Indian","Fine Dining","Amma",-73.9687401,40.7555456
"491",490,"828 Eighth Avenue New York, NY 10019","American","Casual Elegant","Thalia",-73.9860031,40.7620089
"492",491,"5 W. 31st St. New York, NY 10001","Gastro Pub","Casual Dining","Osamil",-73.9864094,40.7469611
"493",492,"626 Hudson Street New York, NY 10014","Pizzeria","Casual Dining","Pizzetteria Brunetti - West Village",-74.0053769,40.7382675
"494",493,"440 9th Avenue New York, NY 10001","Steakhouse","Casual Elegant","Uncle Jack's Steakhouse - Westside 9th Avenue",-73.9954924,40.7536713
"495",494,"2211 Frederick Douglass Blvd New York, NY 10026","American","Casual Dining","Vinateria",-73.9540329,40.8066227
"496",495,"204-206 E 85th Street New York, NY 10028","French","Casual Elegant","Jacques Brasserie",-73.9541461,40.7778202
"497",496,"381 Park Ave South New York, NY 10013","American","Casual Dining","Sarabeth's Park Avenue South",-73.9842177,40.7423612
"498",497,"1504 Lexington Ave New York, NY 10029","Bar","Casual Dining","ABV (Alcohol By Volume)",-73.950646,40.786764
"499",498,"92 Ludlow St. New York, NY 10002","Contemporary American","Casual Dining","Hotel Chantelle",-73.9889794,40.7184061
"500",499,"33 University Place New York, NY 10003","Steakhouse","Casual Dining","Knickerbocker Bar and Grill",-73.9943955,40.7320526
"501",500,"15 Gold Street New York, NY 10038","Italian","Casual Dining","Felice 15 Gold Street",-74.0071031,40.7078871
"502",501,"2791 Broadway New York, NY 10025","Italian","Casual Elegant","Mezzogiorno",-73.9681172,40.8028379
"503",502,"691 9th Ave New York, NY 10036","American","Casual Dining","Mezze Bar",-73.9903454,40.7620451
"504",503,"60 East 54th Street New York, NY 10022","American","Casual Elegant","Monkey Bar",-73.9734055,40.7600804
"505",504,"105 First Ave New York, NY 10003","Mexican","Casual Dining","Empellon Cocina",-73.9863023,40.7268076
"506",505,"696 Madison Avenue New York, NY 10021","Italian","Fine Dining","Nello",-73.97008,40.7657948
"507",506,"214 Front Street New York, NY 10038","Italian","Casual Dining","Il Brigante Restaurant",-74.002642,40.707451
"508",507,"269 Columbus Ave New York, NY 10023","American","Casual Elegant","AG Kitchen",-73.9782726,40.7777686
"509",508,"1 West 67th St. New York, NY 10023","Italian","Fine Dining","The Leopard at des Artistes",-73.978841,40.773515
"510",509,"381 Lenox Avenue New York, NY 10027","Bar / Lounge / Bottle Service","Casual Dining","Harlem Hookah",-73.9435716,40.8105416
"511",510,"3927 St-Denis Montreal, QC H2W 2M4","French","Casual Dining","L'Express",-73.5744113,45.5202676
"512",511,"325 Bowery New York, NY 10003","Italian","Casual Dining","Bar Primi",-73.9918012,40.7256599
"513",512,"75 9th Ave New York, NY 10011","American","Casual Dining","Bar Truman NYC",-74.0060838,40.7425547
"514",513,"545 E.5th St. New York, NY 10009","Italian","Casual Elegant","Lavagna",-73.9823434,40.7240941
"515",514,"250 West 50th Street New York, NY 10019","Steak","Fine Dining","Palm Restaurant - NYC West Side",-73.9858466,40.7618477
"516",515,"318 East 6th St. New York, NY 10003","Indian","Casual Dining","Malai Marke",-73.9876502,40.7268512
"517",516,"77 Fulton Street New York, NY 10038","American","Fine Dining","T.J. Byrnes",-74.0046585,40.7091327
"518",517,"2319 Frederick Douglass Blvd New York, NY 10027","American","Casual Dining","Buffalo Wild Wings - Harlem",-73.951739,40.8098099
"519",518,"41 Murray Street New York, NY 10007","Mexican","Casual Elegant","Rosa Mexicano - TriBeCa",-74.0090376,40.714132
"520",519,"800 Lexington Ave New York, NY 10065","Japanese","Casual Dining","Ginza Japanese",-73.9671583,40.7640484
"521",520,"72 Bedford Street New York, NY 10014","Brazilian","Casual Elegant","Casa Brazilian",-74.004742,40.7314849
"522",521,"David Geffen Hall at Lincoln Center Plaza West 64th Street & Columbus Avenue New York, NY 10023","American","Casual Elegant","Lincoln Center Kitchen",NA,NA
"523",522,"145 Avenue C New York, NY 10009","Latin American","Casual Dining","Esperanto Restaurant",-73.9780487,40.7254621
"524",523,"99 Park Avenue New York, NY 10016","American","Casual Elegant","Park Avenue Tavern",-73.9784511,40.7503381
"525",524,"253 W 47th St New York, NY 10036","American","Casual Dining","Buffalo Wild Wings - Times Square",-73.9863851,40.7602076
"526",525,"23 East 74th Street New York, NY 10021","Italian","Fine Dining","Caravaggio New York",-73.9647436,40.773438
"527",526,"277 E. 10th St. New York, NY 10009","American","Casual Dining","Brindle Room",-73.982699,40.728287
"528",527,"35 West 19th Street New York, NY 10011","Spanish","Casual Dining","Sala One Nine",-73.9930896,40.74003
"529",528,"359 6th Ave New York, NY 10014","Spanish","Casual Elegant","Tertulia",-74.0008231,40.7322758
"530",529,"57 East 57th St. New York, NY 10022","American","Casual Elegant","TY Bar - Four Seasons New York",-73.9716063,40.7621879
"531",530,"1845 Broadway New York, NY 10023","Indian","Fine Dining","Sapphire",-73.9825829,40.769461
"532",531,"178 Ludlow Street New York, NY 10002","American","Casual Dining","Sweet Chick - LES",-73.987299,40.7216882
"533",532,"300 West 23rd Street New York, NY 10011","Japanese","Casual Elegant","Asuka Sushi",-73.9989464,40.7452401
"534",533,"25 Broad Street New York, NY 10004","Steakhouse","Casual Elegant","Bobby Van's Steakhouse - Broad Street",-74.0111372,40.7060887
"535",534,"415 3rd Ave New York, NY 10016","Italian","Casual Elegant","Bistango Ristorante 29th St.",-73.9800893,40.7425771
"536",535,"250 W 41st Street New York, NY 10036","Steakhouse","Casual Dining","Wolfgang's Steak House - Times Square",-73.9893601,40.7561642
"537",536,"113 Thompson Street New York, NY 10012","Japanese","Casual Dining","Omen",-74.0019531,40.7259932
"538",537,"1241 Amsterdam Ave New York, NY 10027","Mediterranean","Casual Dining","Flat Top",-73.9584107,40.8100291
"539",538,"New-York Historical Society 170 Central Park West New York, NY 10024","Italian","Casual Elegant","Storico",-73.9742695,40.7792844
"540",539,"890 Seventh Avenue New York, NY 10019","American","Casual Elegant","Redeye Grill",-73.9803977,40.7650765
"541",540,"28 Carmine Street New York, NY 10014","Italian","Casual Dining","Numero 28 Pizzeria - West Village",-74.0027807,40.7300735
"542",541,"316 West 49th Street New York, NY 10019","Brazilian Steakhouse","Casual Elegant","Churrascaria Plataforma Brazilian Steakhouse",-73.9877321,40.7619602
"543",542,"126 W 13th St New York, NY 10011","Italian","Casual Dining","Gradisca",-73.9986611,40.7370515
"544",543,"15 Irving Place New York, NY 10003","American","Casual Dining","Ichabod's",-73.9884014,40.7348584
"545",544,"507 Columbus Avenue New York, NY 10024","Vegan","Casual Elegant","Blossom on Columbus",-73.972662,40.7853068
"546",545,"162 Ave A New York, NY 10009","Modern Australian","Casual Dining","Flinders Lane",-73.9818726,40.7280565
"547",546,"510 Broome Street New York, NY 10013","Italian","Casual Dining","Aurora Soho",-74.0032259,40.7234953
"548",547,"152 East 79th Street New York, NY 10021","Italian","Casual Dining","Il Riccio",-73.9587963,40.7746541
"549",548,"53 Stone Street New York, NY 10004","Scandinavian","Casual Dining","Smorgas Chef Wall Street",-74.0103936,40.704461
"550",549,"23 Avenue A New York, NY 10009","Latin American","Casual Dining","Yerba Buena",-73.9860106,40.7229309
"551",550,"41 W. 42nd St. New York, NY 10036","French American","Fine Dining","Gabriel Kreuther",-73.9825026,40.7545381
"552",551,"15 West 44th New York, NY 10036","Steak","Casual Elegant","Strip House Midtown",-73.9806807,40.7553242
"553",552,"333 Park Avenue South New York, NY 10010","American","Casual Dining","The Little Beet Table",-73.9853412,40.7411104
"554",553,"1350 Avenue of the Americas New York, NY 10019","Italian","Casual Dining","Bistro Milano",-73.9777614,40.762517
"555",554,"110 West 51st Street Time Life Bldg. New York, NY 10020","American","Casual Dining","Ted's Montana Grill - NYC",-73.9822683,40.7605505
"556",555,"450 East 29th Street New York, NY 10016","American","Casual Elegant","Riverpark",-73.9738974,40.7396742
"557",556,"513 Columbus Ave New York, NY 10024","Italian","Casual Elegant","Osteria Cotta",-73.9726086,40.7855227
"558",557,"222 W. 79th Street New York, NY 10024","Seafood","Casual Elegant","Fish Tag",-73.9794519,40.7833406
"559",558,"220 Park Avenue South New York, NY 10003","Japanese","Casual Elegant","Haru Sushi - Gramercy Park",-73.9889391,40.7371405
"560",559,"432 Avenue of the Americas New York, NY 10011","American","Casual Dining","Umami Burger - Greenwich Village",-73.9985994,40.7344148
"561",560,"12 West 45th Street New York, NY 10036","American","Casual Dining","Point Break NYC",-73.9805225,40.7556009
"562",561,"530 Ninth Avenue New York, NY 10018","Thai","Casual Dining","Lucky Ace",-73.993594,40.756647
"563",562,"236 West 52nd Street New York, NY 10019","Cuban","Casual Dining","Victor's Cafe",-73.9841014,40.7628909
"564",563,"210 E. 58th St. New York, NY 10022","Indian","Casual Elegant","Dawat",-73.9663851,40.760439
"565",564,"251 East 110th Street New York, NY 10029","French","Casual Dining","Tastings Social Presents Mountain Bird",-73.9409276,40.7935881
"566",565,"500 E 62nd St New York, NY 10064","American","Casual Elegant","Prime at the Bentley",-73.9582329,40.7601059
"567",566,"136 Washington New York, NY 10006","Steakhouse","Fine Dining","Morton's The Steakhouse - World Trade Center",-74.0139508,40.7097089
"568",567,"322 W 46th St New York, NY 10036-3801","Italian","Casual Elegant","Orso - NYC",-73.9890099,40.7600118
"569",568,"401 E 76th St New York, NY 10021","British","Casual Dining","Jones Wood Foundry",-73.953541,40.770399
"570",569,"105 E. 9th St. New York, NY 10003","Japanese","Casual Elegant","Yuba",-73.990051,40.7305377
"571",570,"431 3rd Ave New York, NY 10016","Contemporary American","Casual Dining","Banc Cafe",-73.9795029,40.743256
"572",571,"15 East 18th Street New York, NY 10003","Italian","Casual Elegant","18th street Tarallucci E Vino",-73.9906044,40.7382012
"573",572,"221 Dyckman Street New York, NY 10034","Bar","Casual Dining","Dyckman Bar",-73.9274172,40.8659948
"574",573,"6 Clinton St New York, NY 10002","Indian","Casual Elegant","Khushboo Indian Restaurant",-73.9838361,40.7210415
"575",574,"945 2nd Avenue New York, NY 10022","Fish","Casual Dining","Crave Fishbar - Midtown",-73.9686887,40.7551289
"576",575,"963 Lexington Ave. New York, NY 10021","French","Casual Elegant","Brasserie Cognac East",-73.9628994,40.7691115
"577",576,"240 W 55th St New York, NY 10019","Irish","Casual Dining","McGee's Pub and Restaurant",-73.9830476,40.764892
"578",577,"54 Pearl Street New York, NY 10004","Contemporary American","Casual Dining","Fraunces Tavern",-74.0113374,40.7033945
"579",578,"157 Duane St. New York, NY 10013","South Asian","Casual Elegant","Khe-Yo",-74.008587,40.716906
"580",579,"1008 Second Avenue New York, NY 10022","Contemporary French","Casual Elegant","La Mangeoire",-73.9668354,40.7568328
"581",580,"39 E13th Street New York, NY 10003","Thai","Casual Dining","Spice - Union Square",-73.9918552,40.7345363
"582",581,"768 Madison Avenue New York, NY 10065","Italian","Casual Elegant","Bar Italia",-73.9685638,40.7679383
"583",582,"1483 1st Avenue New York, NY 10021","Italian","Fine Dining","Maruzzella",-73.9537599,40.7713386
"584",583,"244 East 79th Street New York, NY 10021","Contemporary American","Casual Elegant","Sojourn Restaurant",-73.9557274,40.7733602
"585",584,"654 9th Avenue New York, NY 10036","Italian","Casual Elegant","Cara Mia",-73.9906674,40.7606904
"586",585,"1417 2nd Avenue New York, NY 10021","Turkish","Casual Dining","A La Turka Restaurant",-73.957715,40.7701307
"587",586,"358 West 46th Street New York, NY 10036","Japanese","Casual Dining","Sake Bar Hagi 46",-73.9901141,40.7605203
"588",587,"102 Avenue C New York, NY 10009","Austrian","Casual Dining","Edi and The Wolf",-73.9787119,40.7237641
"589",588,"103 Waverly Place New York, NY 10011","Contemporary American","Casual Dining","North Square",-73.9986893,40.7325032
"590",589,"150 West 10th St. New York, NY 10014","Gastro Pub","Casual Elegant","Highlands",-74.0010957,40.7343432
"591",590,"55 Carmine Street New York, NY 10014","Korean","Home Style","Do Hwa",-74.0042313,40.7299611
"592",591,"One United Nations Plaza New York, NY 10017","American","Casual Elegant","Ambassador Grill  ONE UN New York Hotel",-73.9691221,40.7504701
"593",592,"120 West 51st Street, Time Life Bldg. New York, NY 10020","Steakhouse","Fine Dining","The Capital Grille - NY  Time Life Building",-73.9822683,40.7605505
"594",593,"2247 1st Avenue. New York, NY 10029","Latin","Casual Dining","LA AVENIDA",-73.9359683,40.7957307
"595",594,"2636 Broadway New York, NY 10025","Indian","Casual Dining","Indus Valley / Manhattan Valley",-73.9697065,40.796989
"596",595,"39 East 58th Street New York, NY 10022","Italian","Casual Elegant","Lavo - NYC",-73.971319,40.7630153
"597",596,"54 Prince Street New York, NY 10012","International","Casual Dining","Delicatessen",-73.9963118,40.72346
"598",597,"181 Front St New York, NY 10038-3501","Contemporary American","Casual Dining","Artists Loft",-74.0041766,40.7065742
"599",598,"210 East 46th St. New York, NY 10017","Steakhouse","Casual Elegant","Sparks Steak House",-73.9720906,40.7528832
"600",599,"400 5th Avenue New York, NY 10018","Contemporary European","Fine Dining","Ai Fiori",-73.9838114,40.7501161
"601",600,"320 Amsterdam Avenue New York, NY 10021","Californian","Casual Dining","Playa Betty's",-73.980368,40.780879
"602",601,"200 East 54th Street New York, NY 10022","Steakhouse","Casual Dining","Wolfgang's Steak House - 54th Street",-73.9685741,40.7579569
"603",602,"2367 Frederick Douglas Blvd New York, NY 10027","Japanese","Casual Dining","Nabe Harlem",-73.9504255,40.8117018
"604",603,"1813 Amsterdam Avenue New York, NY 10031","African","Casual Dining","Farafina Cafe & Lounge",-73.9451,40.828147
"605",604,"198 E. 54th St. New York, NY 10022","Contemporary American","Casual Dining","Crimson & Rye",-73.9687428,40.7580868
"606",605,"One West 59th Street The Plaza Hotel, Concourse Level New York, NY 10019","Contemporary American","Casual Dining","Todd English at The Plaza Food Hall",-73.9918181,40.7686973
"607",606,"249 W. 49th St. New York, NY 10019","American","Casual Dining","Lillie's Times Square",-73.9858991,40.7615384
"608",607,"60 West 53rd Street New York, NY 10019","Chinese","Casual Elegant","China Grill - New York",-73.978765,40.761254
"609",608,"75 West 68th Street New York, NY 10023","French","Casual Elegant","La Boite en Bois",-73.9802468,40.7749073
"610",609,"17 John Street New York, NY 10004","Irish","Casual Dining","The Irish American Pub",-74.008657,40.710034
"611",610,"1626 Broadway New York, NY 10019","American","Casual Dining","Carolines on Broadway",-73.984011,40.7610605
"612",611,"108 East 38 Street New York, NY 10016","Italian","Casual Elegant","Rossini's Restaurant",-73.9788924,40.7491154
"613",612,"129 East 27th Street New York, NY 10016","Contemporary Indian","Casual Elegant","Pippali",-73.9832694,40.7423842
"614",613,"257 West 55th Street New York, NY 10019","Italian","Casual Elegant","1 Nocello",-73.983319,40.765422
"615",614,"350 7th Avenue New York, NY 10001","American","Casual Dining","Seven Bistro",-73.9930736,40.7482597
"616",615,"88 Second Avenue New York, NY 10003","Italian","Casual Dining","Frank Restaurant",-73.9886341,40.7268109
"617",616,"104 Lexington Ave New York, NY 10016","Indian","Casual Elegant","SAHIB",-73.9829659,40.7423098
"618",617,"225 Park Avenue South New York, NY 10003","Italian","Casual Dining","Florian Cafe",-73.9879502,40.7371329
"619",618,"136 W. 33rd Street New York, NY 10001","Steakhouse","Casual Elegant","Statler Grill",-73.9900428,40.7497232
"620",619,"853 Lexington Ave New York, NY 10065","French","Casual Elegant","Sel et Poivre Restaurant",-73.9654103,40.7655864
"621",620,"250 Vesey Street New York, NY 10004","Italian","Casual Dining","Parm Battery Park City",-74.0160185,40.7142595
"622",621,"209 East 56th Street New York, NY 10022","Italian","Casual Elegant","Amata",-73.9670748,40.7594016
"623",622,"344 W. 11th St. New York, NY 10014","Modern European","Casual Elegant","Wallse",-74.008212,40.73541
"624",623,"953 Second Avenue New York, NY 10022","Spanish","Casual Dining","Socarrat Midtown East",-73.9685203,40.7553112
"625",624,"536 E. 5th St. New York, NY 10009","Contemporary American","Casual Dining","Tuome",-73.982949,40.723998
"626",625,"59 West 44th Street New York, NY 10036","Contemporary American","Casual Elegant","The Round Table at the Algonquin Hotel",-73.9822973,40.7560179
"627",626,"156 Ninth Avenue New York, NY 10011","American","Casual Elegant","Tipsy Parson",-74.0026473,40.744247
"628",627,"11 W 32nd Street 3rd & 4th Floor New York, NY 10001","Bar","Casual Dining","Maru Karaoke Lounge",-114.6214815,32.6703765
"629",628,"802 Ninth Avenue New York, NY 10019","Mexican","Casual Dining","Tacuba Hell's Kitchen",-73.987173,40.765423
"630",629,"2607 Broadway New York, NY 10025","Italian","Casual Dining","Regional",-73.9710867,40.7962958
"631",630,"176 2nd Avenue New York, NY 10003","Italian","Casual Dining","Numero 28 Pizzeria Napoletana",-73.9859834,40.7304266
"632",631,"87 7th Avenue South New York, NY 10014","Japanese","Casual Elegant","SUSHISAMBA West Village",-74.0031237,40.7326392
"633",632,"151 Rivington St. 1st floor New York, NY 10002","Japanese","Casual Elegant","Yopparai",-73.985732,40.719125
"634",633,"565 W 207th St New York, NY 10034","Latin / Spanish","Casual Dining","Raices",-73.9200343,40.866434
"635",634,"303 Madison Avenue New York, NY 10017","Mediterranean","Casual Elegant","Pera Mediterranean Brasserie",-73.9794252,40.752316
"636",635,"238 Sherman Avenue New York, NY 10034","American","Casual Dining","Fantastic Restaurant & Lounge",-73.9196803,40.8663138
"637",636,"1 Rockefeller Plaza New York, NY 10020","Wine Bar","Casual Elegant","Morrell Wine Bar & Cafe",-73.9788647,40.7580616
"638",637,"808 Lexington Avenue New York, NY 10065","Mediterranean","Casual Elegant","FIG & OLIVE Uptown",-73.9669029,40.7644006
"639",638,"1356 1st Avenue New York, NY 10021","Italian","Casual Elegant","Petaluma",-73.9553054,40.7682295
"640",639,"106 W 73rd St New York, NY 10023","Italian","Casual Elegant","Arte Cafe",-73.9788317,40.7781074
"641",640,"82 2nd Avenue New York, NY 10003","Creperie","Casual Dining","Golden Crepes - East Village",-73.9888985,40.726472
"642",641,"109 Avenue A (corner of 7th Street) New York, NY 10009","Jamaican","Casual Dining","Miss Lily's 7A",-73.9835429,40.7260554
"643",642,"225 Columbus Avenue New York, NY 10023","French","Casual Dining","Bistro Cassis Manhattan",-73.9792675,40.7762094
"644",643,"57 Stone Street New York, NY 10004","Tapas / Small Plates","Casual Elegant","Vintry Wine & Whiskey",-74.0102668,40.70452
"645",644,"6 West 24th Street New York, NY 10010","Contemporary American","Casual Elegant","Bo's Kitchen & Bar Room",-73.9903152,40.7425327
"646",645,"31 Union Square West New York, NY 10003","Seafood","Casual Elegant","Metropolis Oyster Room and Cocktail Bar",-73.9910603,40.7368703
"647",646,"116 2nd Ave New York, NY 10003","Fusion / Eclectic","Casual Dining","Cafe Mocha",-73.9879512,40.7277859
"648",647,"230 Park Avenue New York, NY 10169","Steakhouse","Casual Elegant","Bobby Van's Park Avenue - 'The Original'",-73.9761826,40.7543721
"649",648,"21 Ann Street New York, NY 10038","Italian","Casual Elegant","Da Claudio Ristorante",-74.0075265,40.7108994
"650",649,"607 10th Ave New York, NY 10036","Mediterranean","Casual Dining","Meme Mediterranean on 10th",-73.994815,40.760923
"651",650,"218 West 35th Street New York, NY 10001","Gastro Pub","Casual Dining","Rock & Reilly's",-73.991033,40.751789
"652",651,"45 Mercer St New York, NY 10013","Italian","Casual Dining","Galli Restaurant SoHo",-74.0013841,40.721676
"653",652,"2128 Frederick Douglass Blvd New York, NY 10026","American","Casual Elegant","Row House",-73.9556367,40.8035322
"654",653,"339 E. 75th Street New York, NY 10021","American","Casual Dining","Seamstress",-73.9549813,40.7701191
"655",654,"205 10th Ave. New York, NY 10011","Tapas / Small Plates","Casual Dining","Tia Pol",-74.004801,40.7473
"656",655,"405 East 52nd Street New York, NY 10022","French","Fine Dining","Le Perigord",-73.9646207,40.7550069
"657",656,"283 West 12th Street New York, NY 10014","Contemporary American","Casual Elegant","Blenheim",-74.0040059,40.7376858
"658",657,"95 7th Ave. South New York, NY 10014","Italian","Casual Dining","Taqueria-Meza",-74.0028447,40.7330017
"659",658,"1 West 59th St New York, NY 10019","Italian","Casual Dining","Ora di Pasta",-73.9744989,40.7647267
"660",659,"53 W 19th St New York, NY 10011","Tapas / Small Plates","Casual Dining","Boqueria Flatiron",-73.9937318,40.74026
"661",660,"367 3rd Ave New York, NY 10016","Bar","Casual Dining","Handcraft Kitchen & Cocktails",-73.981317,40.740985
"662",661,"700 Fifth Avenue New York, NY 10019","Afternoon Tea","Casual Elegant","Gotham Lounge",-73.9754144,40.7616194
"663",662,"789 9th Ave New York, NY 10019","Mexican","Casual Dining","Mi Nidito",-73.9880698,40.7652022
"664",663,"157 Ludlow St. New York, NY 10002","Contemporary Asian","Casual Elegant","SakaMai",-73.9881277,40.7209731
"665",664,"212 E 34th St New York, NY 10016","Turkish","Casual Dining","Galata",-73.9776803,40.745244
"666",665,"211 East 46th St. New York, NY 10017","Indian","Fine Dining","Tulsi",-73.9718218,40.7532168
"667",666,"1325 2nd Avenue New York, NY 10021","American","Casual Dining","5 Napkin - UES",-73.9596012,40.767448
"668",667,"321 West 46th Street New York, NY 10036","Italian","Fine Dining","Barbetta Restaurant",-73.9889489,40.7604034
"669",668,"24 Greenwich Avenue New York, NY 10011","Japanese","Casual Elegant","Saikai Dining Bar (fka Shuka Dining Bar)",-73.9998457,40.7349373
"670",669,"2418 Broadway New York, NY 10024","Italian","Casual Dining","Cibo e Vino",-73.9748699,40.7899815
"671",670,"140 W 13th St New York, NY 10011","Italian","Casual Elegant","Sotto 13",-73.9991585,40.7372515
"672",671,"301 Lavaca Street Austin, TX 78701","Steakhouse","Casual Elegant","Bob's Steak and Chop House - Austin",-97.7458872,30.2661786
"673",672,"185 Avenue C New York, NY 10009","American","Casual Dining","Kaz",-73.9770839,40.7268765
"674",673,"244 E 51st St New York, NY 10022","Middle Eastern","Casual Dining","Karizma Hookah Lounge",-73.9688182,40.7556061
"675",674,"274 Lenox Ave New York, NY 10027","Indian","Casual Dining","ChaiWali",-73.9458469,40.8067572
"676",675,"67 Murray St. New York, NY 10007","Korean","Casual Dining","Gunbae",-74.0102346,40.7146774
"677",676,"611 5th Avenue New York, NY 10021","Contemporary American","Casual Dining","Cafe SFA",-73.9769745,40.758045
"678",677,"401 West 24th Street New York, NY 10011","Spanish","Casual Dining","El Quinto Pino",-74.0010854,40.7474515
"679",678,"106 Lexington Avenue New York, NY 10016","Indian","Casual Dining","Kokum",-73.9829537,40.7423573
"680",679,"179 West Broadway New York, NY 10013","French","Casual Dining","Landmarc TriBeCa",-74.007055,40.7179003
"681",680,"29 7th Ave South New York, NY 10014","Contemporary Mexican","Casual Elegant","La Loteria",-74.0041407,40.7308299
"682",681,"347 East 85th Street New York, NY 10028","Italian","Casual Dining","Luna Rossa Ristorante",-73.9503512,40.7765941
"683",682,"22 East 66th Street New York, NY 10065","French","Casual Elegant","Bistro Chat Noir",-73.9687753,40.7679531
"684",683,"2 East 61st Street The Pierre Hotel New York, NY 10065","Bar","Casual Elegant","Two E Bar and Lounge",-73.9624327,40.7645239
"685",684,"621 9th Avenue New York, NY 10036","Italian","Home Style","Mama Mia - 44sw",-73.992069,40.759761
"686",685,"1022 Madison Ave New York, NY 10075","Italian","Casual Dining","Serafina Fabulous Pizza",-73.9624262,40.7761872
"687",686,"181 East 78th Street New York, NY 10075","French","Casual Elegant","Monte-Carlo NYC",-73.9581211,40.7738695
"688",687,"50 West 22nd New York, NY 10010","Belgian","Casual Dining","BXL ZOUTE",-73.9926271,40.7417252
"689",688,"75 9th Avenue New York, NY 10111","Italian","Casual Dining","Giovanni Rana Pastificio & Cucina",-74.0060838,40.7425547
"690",689,"201 East 31st Street New York, NY 10016","Tapas / Small Plates","Casual Dining","VinoTapa",-73.9791166,40.7437965
"691",690,"1448 First Ave New York, NY 10021","Indian","Casual Elegant","Papadam Flavors of India",-73.954138,40.7698726
"692",691,"235 E 53rd Street New York, NY 10022","Indian","Casual Dining","Brick Lane Curry House - Midtown",-73.9679282,40.7573037
"693",692,"1540 Broadway New York, NY 10036","American","Casual Dining","Planet Hollywood - Times Square",-73.9848083,40.7580769
"694",693,"32 East 21st. St. New York, NY 10010","American","Casual Elegant","Harding's",-73.9887809,40.7392836
"695",694,"310 W 4th St New York, NY 10014","American","Casual Dining","The Black Derby",-74.0039956,40.7372617
"696",695,"488 Amsterdam Ave New York, NY 10024","Indian","Casual Dining","Alachi Masala",-73.9764569,40.7861914
"697",696,"1720 2nd Avenue New York, NY 10128","Creole / Cajun / Southern","Casual Dining","Infirmary",-73.9498615,40.7799438
"698",697,"89 Greenwich Avenue New York, NY 10014","American","Casual Dining","Good Restaurant",-74.0018114,40.7372741
"699",698,"6 East 18th St New York, NY 10003","Contemporary American","Casual Dining","Union Fare",-73.9912583,40.7381636
"700",699,"212 Lafayette St. New York, NY 10012","Swiss","Casual Dining","Cafe Select - NYC",-73.9979236,40.721815
"701",700,"356 E 51st St New York, NY 10022","French","Casual Dining","Deux Amis",-73.9661811,40.7545393
"702",701,"660 Amsterdam Avenue New York, NY 10025","Italian","Casual Dining","Numero 28 Pizzeria - UWS",-73.9723652,40.7917536
"703",702,"104 2nd Ave New York, NY 10003","Bar","Casual Dining","Lionsbeerstore",-73.9881539,40.7273943
"704",703,"953 Amsterdam Avenue New York, NY 10025","Latin American","Casual Dining","Tropical Sensation",-73.9650543,40.8008645
"705",704,"1600 Amsterdam Ave New York, NY 10031","Italian","Casual Dining","Fumo Pizza - Bar - Pasta",-73.9506925,40.8214028
"706",705,"4015 Broadway New York, NY 10032","Comfort Food","Casual Dining","Coogan's Restaurant",-73.939728,40.841687
"707",706,"319 Greenwich Avenue New York, NY 10013","Indian","Casual Elegant","Salaam Bombay - Tribeca",-74.0104987,40.7170258
"708",707,"35 W. 20th St. New York, NY 10011","Greek","Casual Dining","Periyali",-73.9928977,40.7407162
"709",708,"252 West 47th Street New York, NY 10036","Contemporary American","Casual Elegant","Glass House Tavern",-73.986698,40.759833
"710",709,"18 East 33rd St. New York, NY 10016","Irish","Casual Dining","Nelly Spillanes",-73.9842012,40.7471622
"711",710,"26 Bond St. New York, NY 10012","American","Casual Dining","The Smile",-73.9935643,40.7266364
"712",711,"685 Amsterdam Avenue New York, NY 10025","Japanese","Casual Dining","Kouzan",-73.9712237,40.7921532
"713",712,"74 Orchard St. New York, NY 10002","Jamaican","Casual Dining","Spur Tree at Norman's Cay",-73.9902533,40.7176116
"714",713,"1011 3rd Avenue New York, NY 10065","American","Casual Dining","Dylan's Candy Bar",-73.9657703,40.7622135
"715",714,"50 E. 86th St New York, NY 10028","French","Casual Elegant","Demarchelier",-73.9586967,40.7805119
"716",715,"14 East 47th Street New York, NY 10184","Gastro Pub","Casual Dining","Connolly's Pub and Restaurant - 47th",-73.9778118,40.7561728
"717",716,"The East River between 28th Street and 32nd Street New York, NY 10016","American","Casual Elegant","The Water Club",-73.9814397,40.7454534
"718",717,"1123 1st Avenue New York, NY 10065","Tapas / Small Plates","Casual Elegant","El Porron",-73.9611106,40.7613278
"719",718,"357 West Broadway New York, NY 10013","Ukrainian","Casual Dining","Taras Bulba",-74.0030577,40.7229378
"720",719,"315 5th ave 2nd floor New York, NY 10016","Korean","Casual Dining","Soju Haus",-73.9851941,40.7468929
"721",720,"141 West 69th Street New York, NY 10023","Spanish","Casual Elegant","Andanada",-73.9814654,40.7762479
"722",721,"11 West 31st Street New York, NY 10001","Wine Bar","Casual Elegant","AYZA Wine & Chocolate Bar",-73.9869043,40.7471282
"723",722,"256 W 52nd Street New York, NY 10019","Russian","Casual Dining","Russian Samovar & Tolstoy's Lounge",-73.9847265,40.7631575
"724",723,"1567 Broadway at 47th Street W Hotel Times Square New York, NY 10036","Seafood","Casual Elegant","Blue Fin - New York",-73.9855995,40.7593257
"725",724,"303 Lexington Ave New York, NY 10016","Burgers","Casual Dining","RARE Bar & Grill (Murray Hill)",-73.9779467,40.7484054
"726",725,"40 Central Park South New York, NY 10019","American","Casual Dining","Sarabeth's Central Park South",-73.9756694,40.765125
"727",726,"391 Avenue of the Americas New York, NY 10014","Russian","Casual Elegant","Onegin",-74.0001298,40.733331
"728",727,"473 Columbus Ave. New York, NY 10024","French","Casual Dining","Bistro Citron - Manhattan",-73.9734941,40.7842696
"729",728,"200 Mott St. New York, NY 10012","Italian","Casual Dining","Epistrophy",-73.9953924,40.72119
"730",729,"352 West 44th Street New York, NY 10036","Italian","Casual Elegant","Etcetera Etcetera",-73.9911505,40.759259
"731",730,"202 Centre Street New York, NY 10013","Chinese","Casual Dining","Red Egg",-73.9989819,40.7188263
"732",731,"205 Thompson St. New York, NY 10012","Mexican","Casual Dining","Toloache Thompson St.",-73.9995812,40.7287205
"733",732,"13 West 26th St New York, NY 10010","Japanese","Casual Dining","Izakaya NoMad",-73.989469,40.7441596
"734",733,"40 West 8th Street New York, NY 10011","Indian","Casual Elegant","Curry Kitchen",-73.9984186,40.7329256
"735",734,"243 East 53rd Street New York, NY 10022","Italian","Casual Dining","Luna Piena Ristorante",-73.9676585,40.7572383
"736",735,"28 East 63rd Street New York, NY 10065","Contemporary American","Fine Dining","The Pembroke Room - The Lowell New York",-73.9692137,40.7657132
"737",736,"1 W 59th Street New York, NY 10019","International","Casual Elegant","Olma Caviar Boutique & Bar",-73.9744989,40.7647267
"738",737,"3910 Broadway New York, NY 10032","American","Casual Dining","Heights Tavern",-73.9414519,40.8381598
"739",738,"480 Lexington Avenue New York, NY 10017","Fusion / Eclectic","Fine Dining","at Vermilion",-73.9741382,40.754115
"740",739,"Rockefeller Center 20. West 50th Street New York, NY 10020","Contemporary American","Casual Dining","Rock Center Cafe",-73.9785045,40.7586874
"741",740,"717 5th Avenue New York, NY 10022","Italian","Casual Elegant","Armani Ristorante 5th Avenue",-73.9740315,40.7617488
"742",741,"549 Greenwich Street New York, NY 10013","Italian","Casual Elegant","PJ Charlton",-74.0086152,40.7273321
"743",742,"59 Grand St New York, NY 10013","French American","Casual Dining","Lucky Strike",-74.0034907,40.722135
"744",743,"300 1/2 East 52nd Street New York, NY 10022","French","Casual Dining","Pierre Loti Midtown",-73.9758972,40.7598213
"745",744,"27 Grand Street New York, NY 10013","Bar","Casual Dining","Jimmy at the James",-74.0047546,40.7227053
"746",745,"79 Crosby St. New York, NY 10012","Bar","Casual Elegant","The Crosby Bar",-73.9974083,40.7230046
"747",746,"262 West 15th Street New York, NY 10011","French","Casual Dining","Golden Crepes",-74.0018482,40.7401296
"748",747,"211 West Broadway New York, NY 10013","Contemporary American","Casual Elegant","Distilled NY",-74.00622,40.7188969
"749",748,"120 W. 45th Street New York, NY 10036","Steakhouse","Casual Dining","Bobby Van's Grill Times Square",-73.983916,40.7570272
"750",749,"39 W 46th St. New York, NY 10036","Contemporary Italian","Casual Dining","Ninos 46",-73.9805082,40.7568962
"751",750,"18 Cornelia Street New York, NY 10014","Provencal","Casual Dining","Le Gigot",-74.001914,40.7313345
"752",751,"35 West 35th Street New York, NY 10001","Korean","Casual Dining","Madangsui-NY",-73.9856727,40.7500112
"753",752,"1004 2nd Avenue New York, NY 10022","Contemporary American","Casual Dining","The Upsider",-73.9668026,40.7568009
"754",753,"152 Stanton Street New York, NY 10002","Argentinean","Casual Elegant","Balvanera",-73.9853832,40.7206224
"755",754,"78 West 11th Street New York, NY 10011","French","Casual Dining","French Roast Bar & Bistro - Downtown",-73.9980751,40.7351482
"756",755,"22 Warren Street New York, NY 10007","Italian","Casual Elegant","Gran Morsi",-74.0077669,40.7143229
"757",756,"218 Bowery New York, NY 10012","Contemporary French","Casual Elegant","Rebelle",-73.9937922,40.7219568
"758",757,"69 West 55th Street New York, NY 10019","Italian","Casual Elegant","PizzArte",-73.9774251,40.7629296
"759",758,"289 Bleecker Street New York, NY 10014","Italian","Casual Dining","Pagani",-74.0032952,40.732159
"760",759,"323 3rd Ave New York, NY 10010","Japanese","Casual Dining","Natsumi Tapas",-73.9823287,40.7395596
"761",760,"87 E. 4th St. New York, NY 10003","Seafood","Casual Dining","Cucina di Pesce",-73.9897648,40.7265055
"762",761,"1596 2nd Avenue New York, NY 10028","American","Casual Dining","Duke's - Upper East Side",-73.953007,40.775638
"763",762,"321 East Houston St. New York, NY 10002","Mexican","Casual Dining","El Maguey y la Tuna",-73.982898,40.7209168
"764",763,"517 2nd Avenue New York, NY 10016","Italian","Casual Dining","Dolcino Trattoria Toscana",-73.9785218,40.7415752
"765",764,"198TH 8TH AVE, 20th ST New York, NY 10010","Mexican","Casual Dining","Temerario",-73.9798909,40.7350013
"766",765,"43 W 46th Street New York, NY 10036","Brazilian","Casual Elegant","Ipanema Restaurant",-73.9806353,40.7569558
"767",766,"95 Allen Street New York, NY 10002","Latin / Spanish","Casual Dining","Empanada Mama - LES",-73.9910278,40.7187753
"768",767,"77 St. Mark's Place New York, NY 10003","Mexican","Casual Dining","La Palapa",-73.9856096,40.7279587
"769",768,"350 Fifth Ave. New York, NY 10118","American","Casual Elegant","State Grill and Bar",-73.9856554,40.7484404
"770",769,"99 2nd Ave. New York, NY 10003","Indian","Casual Dining","Brick Lane Curry House",-73.988978,40.727377
"771",770,"85 MacDougal St New York, NY 10012","French American","Casual Elegant","CAMAJE Bistro",-74.0017841,40.7289707
"772",771,"132 W. 31 St. New York, NY 10001","American","Casual Elegant","Pennsylvania 6 - NYC",-73.990655,40.7483005
"773",772,"23 Vanderbilt Ave New York, NY 10017","Steakhouse","Fine Dining","Michael Jordan's The Steak House N.Y.C.",-73.9778254,40.7531364
"774",773,"37 E. 64th St. New York, NY 10065","French","Casual Elegant","Arabelle at the Hotel Plaza Athenee",-73.9683848,40.7666369
"775",774,"52 Stone Street New York, NY 10004","American","Casual Dining","Stone Street Tavern",-74.0102138,40.7042272
"776",775,"21 Peck Slip New York, NY 10038","Italian","Casual Dining","Acqua at Peck Slip",-74.0016421,40.7082633
"777",776,"66 Park Avenue New York, NY 10016","Japanese","Casual Dining","Hakubai - The Kitano",-73.9799716,40.7495879
"778",777,"307 W 47th St New York, NY 10036","American","Casual Dining","Dutch Fred's",-73.9878465,40.7608159
"779",778,"242 Columbus Avenue New York, NY 10023","French American","Casual Elegant","Cafe Tallulah",-73.9792896,40.7770456
"780",779,"311 West 48th Street New York, NY 10036","Pizzeria","Casual Dining","Patzeria Family & Friends",-73.9876708,40.7613298
"781",780,"220 Fifth Avenue New York, NY 10001","Belgian","Casual Dining","Belgian Beer Cafe NoMad",-73.9884398,40.7437266
"782",781,"1466 1st Ave New York, NY 10075","Japanese","Casual Dining","Momokawa II",-73.953707,40.7704803
"783",782,"713 Second Ave. New York, NY 10016","Asian","Casual Elegant","Sachi",-73.9741571,40.7476788
"784",783,"1634 Lexington Avenue New York, NY 10029","Wine Bar","Casual Dining","The Lexington Social",-73.9477089,40.7905807
"785",784,"29 East 65th Street New York, NY 10065","French","Casual Elegant","Match 65 Brasserie (formerly Paris Match)",-73.9682118,40.7672541
"786",785,"54 West 31st St New York, NY 10001","Irish","Casual Dining","O'Reilly's Pub",-73.9888606,40.7475754
"787",786,"13 East 1st St. New York, NY 10003","Italian","Casual Elegant","L'Apicio",-73.9915524,40.7243891
"788",787,"33 East 61st Street New York, NY 10022","Italian","Casual Dining","Serafina Fabulous Grill",-73.9698519,40.7647672
"789",788,"2118 Frederick Douglass Blvd. New York, NY 10026","Sushi","Casual Dining","Jado Sushi",-73.955824,40.80328
"790",789,"316 East 53rd Street New York, NY 10022","Steakhouse","Fine Dining","212 Steakhouse",-73.9665386,40.7562711
"791",790,"371 West 46th Street New York, NY 10036","Latin American","Casual Elegant","La Pulperia 46th Street",-73.9902681,40.7609632
"792",791,"197 Grand St New York, NY 10013","Italian","Casual Dining","Margherita NYC",-73.9969894,40.7190658
"793",792,"1705 First Avenue New York, NY 10128","French","Casual Dining","Room 1705",-73.9485191,40.7785516
"794",793,"1588 Second Avenue New York, NY 10028","Chinese","Casual Dining","Wa Jeal",-73.9531948,40.7753797
"795",794,"235 West 12th Street New York, NY 10014","French","Casual Elegant","Wallflower",-74.0021602,40.7378032
"796",795,"2 Gold Street New York, NY 10038","Italian","Casual Dining","Harry's Italian - Financial District",-74.0069621,40.7073585
"797",796,"116 Stanton St. New York, NY 10002","Greek","Casual Dining","Souvlaki GR - LES",-73.9871225,40.7211923
"798",797,"143 East 49th Street New York, NY 10017","Italian","Casual Dining","Toscana 49",-73.9722048,40.7557855
"799",798,"1712 First Avenue New York, NY 10128","Italian","Casual Elegant","Cavatappo Grill",-73.9478306,40.778485
"800",799,"750 11th Ave New York, NY 10019","Italian","Casual Dining","Il Baretto",-73.9931718,40.7674645
"801",800,"127 West 43rd Street New York, NY 10036","American","Casual Elegant","Heartland Brewery Chophouse",-73.9845582,40.7561504
"802",801,"81 Greenwich Ave New York, NY 10014","Spanish","Casual Dining","Barraca",-74.0015437,40.7370027
"803",802,"103 Greenwich Ave. New York, NY 10014","American","Casual Dining","Monument Lane",-74.0020939,40.7378037
"804",803,"133 East 61st Street New York, NY 10065","Southern","Casual Dining","Chimichurri Grill - UES",-73.9675383,40.7638399
"805",804,"10700 Kuykendahl Rd. Suite F The Woodlands, TX 77381","Italian","Casual Dining","Via Emilia - The Woodlands",-95.5351239,30.1773797
"806",805,"1708 Second Ave New York, NY 10128","Irish","Casual Dining","Genesis Bar & Restaurant",-73.9502569,40.7794039
"807",806,"485 10th Avenue New York, NY 10018","American","Casual Elegant","Clyde Frazier's Wine and Dine",-73.9979592,40.7567889
"808",807,"251 E 31st Street New York, NY 10016","Italian","Fine Dining","Marchi's",-73.9775784,40.7431927
"809",808,"176 Perry Street New York, NY 10014","American","Casual Elegant","Perry St",-74.0096694,40.7344162
"810",809,"11 Hanover Sq New York, NY 10005","Greek","Fine Dining","11 Hanover Greek",-74.008852,40.7052635
"811",810,"2014 Broadway New York, NY 10023","Italian","Casual Elegant","Luce Restaurant & Enoteca",-73.9818528,40.7758988
"812",811,"801 Lexington Ave New York, NY 10065","French","Casual Elegant","Mon Petit Cafe",-73.9666742,40.763926
"813",812,"375 Greenwich St New York, NY 10013","Contemporary American","Casual Elegant","Tribeca Grill",-74.009899,40.7196079
"814",813,"315 West 36th Street New York, NY 10018","Steakhouse","Casual Elegant","Staghorn Steakhouse",-73.9933502,40.7540575
"815",814,"939 8th Avenue New York, NY 10019","Cuban","Casual Elegant","Guantanamera",-73.9838548,40.7659479
"816",815,"5 Avenue A New York, NY 10009","American","Casual Elegant","Boulton and Watt",-73.9863608,40.7225201
"817",816,"384 3rd Avenue New York, NY 10016","American","Casual Dining","Whitman and Bloom",-73.9813999,40.7418327
"818",817,"25 Clinton Street New York, NY 10002","Contemporary Asian","Casual Dining","Ivan Ramen",-73.9845393,40.720552
"819",818,"340 West Broadway New York, NY 10013","French","Casual Dining","Felix",-74.0038111,40.7225856
"820",819,"555 2nd Ave New York, NY 10016","Italian","Casual Dining","Todaro Bros Enoteca",-73.9776502,40.7427617
"821",820,"2217-23 Frederick Douglass Blvd. New York, NY 10026","American","Casual Elegant","Chocolat Restaurant Lounge",-73.9539472,40.8069256
"822",821,"49 W 20th Street New York, NY 10011","Chinese","Casual Dining","Jue Lan Club",-73.9935754,40.7410254
"823",822,"553 Manhattan Avenue New York, NY 10027","Mexican","Casual Dining","Lulu's Taqueria",-73.9538899,40.8095085
"824",823,"43 East 7th St New York, NY 10003","Gastro Pub","Casual Dining","Jimmy's No. 43",-73.988579,40.7283142
"825",824,"325 West 57th Street New York, NY 10019","Turkish","Casual Dining","ABA Turkish Restaurant",-73.9840271,40.767465
"826",825,"17 Clinton Street New York, NY 10002","Pizzeria","Casual Dining","Rizzo's Fine Pizza Co. Beer & Wine Bar",-73.9843642,40.7208375
"827",826,"653 9th Avenue New York, NY 10036","French","Casual Elegant","La Carafe",-73.991233,40.7608055
"828",827,"330 Lafayette St New York, NY 10012","Chinese","Casual Dining","NoHo Star",-73.9949694,40.7258295
"829",828,"265 Bowery New York, NY 10002","German","Casual Dining","Paulaner Brauhaus & Restaurant NYC",-73.9924712,40.7234093
"830",829,"7 East 48th Street New York, NY 10017","Japanese","Casual Elegant","Shinbashi",-73.977288,40.757112
"831",830,"489 Columbus Ave New York, NY 10024","Indian","Casual Dining","Lala Sahab",-73.9730465,40.7847702
"832",831,"76 Ave. B New York, NY 10009","Mediterranean","Casual Dining","Oda House",-73.9821844,40.7240282
"833",832,"41 West 42nd St New York, NY 10036","French","Fine Dining","Gabriel Kreuther Bar",-73.9825026,40.7545381
"834",833,"14 Bedford Street New York, NY 10014","Italian","Casual Dining","Da Tommy Osteria",-74.003282,40.729171
"835",834,"2454 Broadway New York, NY 10024","American","Casual Dining","Big Daddys  Upper West Side",-73.9739083,40.7911514
"836",835,"145 W 44th St New York, NY 10036","American","Casual Dining","Restaurant Charlotte",-73.9847996,40.7570734
"837",836,"405 East 58th Street New York, NY 10022","French","Casual Elegant","Bistro Vendome - NYC",-73.9618541,40.7589285
"838",837,"420 Amsterdam Ave New York, NY 10024","Seafood","Casual Dining","Olma Caviar Boutique & Lounge",-73.9780299,40.7840653
"839",838,"45 E 1st St New York, NY 10003","American","Casual Elegant","Joe and Misses Doe",-73.9899453,40.7237342
"840",839,"135 West 42nd Street New York, NY 10036","American","Casual Elegant","Aureole - Liberty Room",-73.9852848,40.7555892
"841",840,"341 St. Nicholas Ave New York, NY 10027","French","Casual Dining","Maison Harlem",-73.9516927,40.8122374
"842",841,"132 West 58th Street New York, NY 10019","Greek","Casual Elegant","Loi Estiatorio",-73.9779742,40.7653771
"843",842,"111 Avenue C New York, NY 10009","Tapas / Small Plates","Casual Dining","Marcha Cocina Downtown",-73.9789315,40.7243262
"844",843,"414 West 42nd Street New York, NY 10036","French","Casual Dining","Chez Josephine",-73.9935399,40.7585254
"845",844,"46 West 22nd St. New York, NY 10010","Sushi","Casual Dining","Mira Sushi & Izakaya Bar",-73.9924579,40.7416984
"846",845,"29 W 36th St New York, NY 10018","Mexican","Casual Dining","Habanero Blues",-73.9851102,40.7505644
"847",846,"206 west 41st ST New York, NY 10036","American","Casual Dining","Gleason's Tavern",-73.9881187,40.7553581
"848",847,"4 West 28th Street New York, NY 10001","Italian","Casual Dining","Ulivo",-73.988034,40.744737
"849",848,"60 West 57th Street New York, NY 10019","Asian Fusion","Casual Dining","Rue 57",-73.9771344,40.7638335
"850",849,"198 Allen Street New York, NY 10002","Italian","Casual Dining","Pala",-73.9885799,40.7223506
"851",850,"313 West 46th Street New York, NY 10036","Italian","Casual Dining","La Rivista",-73.9886033,40.7602635
"852",851,"151 Mulberry Street New York, NY 10013","Italian","Casual Dining","Aunt Jake's",-73.9976405,40.7190705
"853",852,"119 South St New York, NY 10038","American","Casual Dining","The Paris Cafe",-74.0015425,40.7073164
"854",853,"116 Avenue C New York, NY 10009","Eastern European","Casual Dining","Kafana",-73.9784123,40.7242202
"855",854,"21 East 47th Street New York, NY 10017","Irish","Home Style","Maggie's Place",-73.9771121,40.7563016
"856",855,"Rockefeller Center - 19 W.49th Street or via the concourse thru any Rockefeller Center entrance New York, NY 10020","Seafood","Casual Elegant","The Sea Grill",-73.9822683,40.7605505
"857",856,"76 Forsysth St New York, NY 10002","Japanese","Casual Dining","Rabbit House",-73.993131,40.717203
"858",857,"130 W. 44th Street New York, NY 10036","Contemporary American","Casual Dining","The Lambs Club - Bar",-73.9845729,40.7564755
"859",858,"510 West 52nd Street New York, NY 10019","American","Casual Dining","Ardesia Wine Bar",-73.9918274,40.7660382
"860",859,"26 Greenwich Ave New York, NY 10011","Contemporary French / American","Casual Dining","Le Baratin",-73.9999272,40.7349953
"861",860,"9 W. 26th Street New York, NY 10010","Comfort Food","Casual Elegant","Toshi's Living Room & Penthouse",-73.9893102,40.7440592
"862",861,"21 E. 62nd St. New York, NY 10065","Mediterranean","Casual Dining","Amaranth",-73.9703056,40.7657814
"863",862,"502 6th Avenue New York, NY 10011","French","Casual Elegant","Bar Six",-73.9971406,40.7363838
"864",863,"6064 Monroe Street Sylvania, OH 43560","Italian","Casual Dining","Ciao! - Sylvania",-83.68906,41.716796
"865",864,"271 W 119th St New York, NY 10026","Seafood","Casual Elegant","B2 Harlem",-73.9532758,40.806208
"866",865,"163 Elizabeth Street New York, NY 10012","Turkish","Casual Dining","Little Rascal Cafe & Bar",-73.9950601,40.7208588
"867",866,"231 Lenox Avenue New York, NY 10027","French","Casual Elegant","Cheri",-73.9471966,40.8055952
"868",867,"240 Ninth Ave New York, NY 10001","Basque","Casual Dining","Txikito",-74.0003123,40.747341
"869",868,"185 Sullivan Street New York, NY 10012","French","Casual Elegant","MIMI",-74.0006612,40.7283483
"870",869,"2672 Broadway New York, NY 10025","Mexican","Casual Dining","Mexican Festival Restaurant",-73.9687981,40.7982465
"871",870,"40 West 45th Street New York, NY 10036","Contemporary American","Casual Dining","Restaurant Patrick at Club Quarters",-73.9813189,40.7559391
"872",871,"1593 Second Avenue New York, NY 10028","Indian","Casual Dining","OM Real Indian Food",-73.953644,40.7758301
"873",872,"21 W. 52nd St New York, NY 10019","American","Fine Dining","Upstairs at '21'",-73.9774394,40.7604522
"874",873,"156 West 44th Street New York, NY 10036","Irish","Casual Dining","O'Donoghue's Bar & Restaurant",-73.9853716,40.7568116
"875",874,"3570 Las Vegas Blvd S Las Vegas, NV 89109","American","Casual Dining","Cafe Americano",-115.1750576,36.1161559
"876",875,"134 West 46th Street New York, NY 10036","American","Casual Dining","O'Brien's Irish Pub",-73.98395,40.7578467
"877",876,"745 9th Avenue New York, NY 10019","Indian","Casual Dining","Basera Indian Bistro",-73.9890987,40.7638415
"878",877,"40 7th Street NE Atlanta, GA 30308","European","Casual Dining","Ecco",-84.3858802,33.7788328
"879",878,"255 West 55th Street New York, NY 10019","Italian","Casual Dining","1 Vizio",-73.9832642,40.7653805
"880",879,"203 East 45th Street New York, NY 10017","American","Casual Dining","The Perfect Pint - East",-73.9726551,40.7526659
"881",880,"165 Lexington Avenue New York, NY 10016","Italian","Casual Elegant","Trattoria Belvedere",-73.9811388,40.7439653
"882",881,"425 Lafayette Street New York, NY 10003","American","Casual Dining","The Library at the Public",-73.9918202,40.729032
"883",882,"905 1st Ave. New York, NY 10022","Seafood","Casual Dining","Ethos - Gallery",-73.9659551,40.7544974
"884",883,"197 First Ave New York, NY 10003","Italian","Casual Elegant","East 12th Osteria",-73.983724,40.730212
"885",884,"246 East 44th Street New York, NY 10017","Spanish","Casual Dining","Alcala",-73.9718299,40.7511145
"886",885,"45 St. Martin's Lane London, WC2N 4HX","Latin American","Casual Elegant","Asia de Cuba - London",-0.1265824,51.5104696
"887",886,"64 W. 39th Street New York, NY 10018","American","Casual Dining","Parker & Quinn",-73.9850284,40.7526106
"888",887,"100 West Houston Street New York, NY 10012","American","Casual Elegant","Jane",-74.0001976,40.7273779
"889",888,"258 W 44th St New York, NY 10036","Barbecue","Casual Dining","Sammy's House of BBQ - 44th St",-73.9883734,40.7581681
"890",889,"212 W 57th St New York, NY 10019","American","Casual Dining","Brooklyn Diner",-73.9806508,40.7657879
"891",890,"181 West 10th Street New York, NY 10014","French","Casual Elegant","Bobo Restaurant",-74.0026179,40.7344802
"892",891,"137 Sullivan Street New York, NY 10012","American","Casual Elegant","Navy",-74.0018224,40.7268036
"893",892,"121 Fulton Street New York, NY 10038","American","Casual Dining","121 Fulton Street",-74.0070013,40.7101432
"894",893,"241 E 24th St New York, NY 10010","Vegan","Casual Dining","VSPOT Organic - Gramercy",-73.9807881,40.7389512
"895",894,"725 Blue harbor DR Sheboygan, WI 53081","Seafood","Casual Dining","Latitude",-87.7055469,43.7467365
"896",895,"2637 Broadway New York, NY 10025","Turkish","Casual Dining","Turkuaz",-73.970573,40.797339
"897",896,"196 8th Avenue New York, NY 10011","Italian","Casual Dining","Lasagna Restaurant  Chelsea",-73.9996782,40.7432349
"898",897,"402 West 44th Street New York, NY 10036","Italian","Casual Elegant","Gallo Nero",-73.992059,40.7597582
"899",898,"205 E 81st St New York, NY 10028","Italian","Casual Elegant","Campagna Quattro Gatti",-73.9559819,40.7756014
"900",899,"842 Amsterdam Avenue New York, NY 10025","Mexican","Casual Dining","Noche Mexicana",-73.968268,40.797478
"901",900,"2 Avenue of the Americas New York, NY 10013","Continental","Casual Elegant","The Django",-74.004781,40.7193813
"902",901,"233 West Street New York, NY 10013","Contemporary American","Casual Dining","City Vineyard & Wine Garden at Pier 26",-74.0127002,40.7213698
"903",902,"2888 Broadway New York, NY 10025","Mexican","Casual Dining","Amigos",-73.9653136,40.8055357
"904",903,"212 Lafayette St. New York, NY 10012","Seafood","Casual Dining","Cervantes Oyster Shack at Cafe Select",-73.9979236,40.721815
"905",904,"1 East 15th Street New York, NY 10003","American","Casual Elegant","Tocqueville",-73.9927131,40.7366772
"906",905,"Ten Columbus Circle Third Floor New York, NY 10019","French American","Casual Dining","Bouchon  at Time Warner Center",-75.3695542,42.755961
"907",906,"676 Avenue of the Americas New York, NY 10010","Belgian","Casual Elegant","Markt",-73.9934084,40.741603
"908",907,"973 Lexington Avenue New York, NY 10021","Italian","Fine Dining","Caffe dei Fiori",-73.962699,40.769339
"909",908,"120 E. 56th St. New York, NY 10022","Italian","Fine Dining","Montebello Ristorante Italiano",-73.9706324,40.7604588
"910",909,"229 Columbus Ave. New York, NY 10023","Italian","Casual Dining","Pomodoro Rosso",-73.979175,40.776306
"911",910,"315 West 39th Street New York, NY 10018","American","Casual Elegant","Tir Na Nog Irish Bar & Grill - Times Square",-73.9920452,40.7559712
"912",911,"322 East 86th Street New York, NY 10028","French","Casual Dining","Little Frog",-73.9509004,40.7772456
"913",912,"1762 2nd Ave New York, NY 10128","Pizzeria","Casual Dining","Delizia 92",-73.9487149,40.7814071
"914",913,"102 Lexington Avenue New York, NY 10016","Indian","Casual Dining","Haldi",-73.9830072,40.7422627
"915",914,"889 10th Ave. New York, NY 10019","Greek","Casual Dining","The Greek Kitchen",-73.9885192,40.7698117
"916",915,"90 Washington St New York, NY 10006","Bar","Casual Dining","Clinton Hall",-74.014869,40.70803
"917",916,"807 Lexington Ave New York, NY 10065","Indian","Casual Dining","Agra Restaurant",-73.9664813,40.7641921
"918",917,"25 West 51st Street New York, NY 10016","Southwest","Casual Dining","Johnny Utah's",-73.9782601,40.7600425
"919",918,"1260 Amsterdam Avenue New York, NY 10027","Italian","Casual Dining","Serafina Harlem",-73.9584604,40.810944
"920",919,"447 Lexington Ave. New York, NY 10017","Steakhouse","Fine Dining","Davio's Northern Italian Steakhouse - Manhattan",-73.9744989,40.7529777
"921",920,"35 East 76th St. New York, NY 10021","French","Fine Dining","Carlyle Restaurant",-73.9629931,40.7742972
"922",921,"34 White St New York, NY 10013","Italian","Casual Dining","Petrarca Cucina e Vino",-74.0045832,40.7188979
"923",922,"245 West 29th New York, NY 10001","French","Casual Elegant","OCabanon",-73.9945448,40.7487856
"924",923,"447 Lexington Ave. New York, NY 10017","Steakhouse","Fine Dining","Davio's Northern Italian Steakhouse - Manhattan",-73.9744989,40.7529777
"925",924,"35 East 76th St. New York, NY 10021","French","Fine Dining","Carlyle Restaurant",-73.9629931,40.7742972
"926",925,"34 White St New York, NY 10013","Italian","Casual Dining","Petrarca Cucina e Vino",-74.0045832,40.7188979
"927",926,"151 E 58th St New York, NY 10022","Italian","Casual Dining","Sirio Ristorante",-73.967902,40.7615678
"928",927,"712 9th Ave New York, NY 10019","Soul food","Casual Dining","Zora's Cafe",-73.989253,40.7625
"929",928,"29 Cornelia Street New York, NY 10014","Contemporary American","Casual Dining","Cornelia Street Cafe",-74.0024684,40.7314823
"930",929,"210 East 51st Street New York, NY 10022","Belgian","Casual Dining","BXL East",-73.9698286,40.7560559
"931",930,"175 Ludlow St. New York, NY 10002","Wine Bar","Casual Dining","Taverna Di Bacco",-73.9876547,40.7219042
"932",931,"24 E. 39th Street New York, NY 10016","British","Casual Dining","The Shakespeare",-73.9802584,40.7504717
"933",932,"234 E 4th St, New York, NY 10009","Italian","Casual Dining","Gnoccheria by Luzzo's",-73.983137,40.7233126
"934",933,"515 W 52nd St New York, NY 10019","French","Casual Dining","La Bergamote - Hell's Kitchen",-73.9916275,40.7665134
"935",934,"509 3rd Ave New York, NY 10016","Modern European","Casual Dining","Vago Restaurant",-73.977715,40.7458311
"936",935,"152 West 26th Street New York, NY 10001","Burgers","Casual Dining","Rare Bar and Grill",-73.993757,40.7455199
"937",936,"101 Rivington St New York, NY 10002","American","Casual Dining","Spitzer's Corner",-73.988271,40.7199386
"938",937,"244 West 56th Street New York, NY 10019","Italian","Casual Elegant","Joe G Restaurant",-73.9829954,40.7656514
"939",938,"1000 3rd Avenue New York, NY 10022","Contemporary American","Casual Dining","David Burke at Bloomingdales",-73.9666667,40.7617753
"940",939,"140 West 46th Street New York, NY 10036","Steak","Casual Dining","St. Andrews",-73.9840773,40.7579
"941",940,"382 8th Avenue New York, NY 10001","Greek","Casual Dining","Uncle Nick's Greek Cuisine - Chelsea",-73.9954181,40.7490438
"942",941,"94 Christopher St. New York, NY 10014","Cuban","Casual Dining","Havana - Alma de Cuba",-74.0045143,40.7332076
"943",942,"155 West 43rd Street New York, NY 10036","American","Casual Dining","The Brooklyn Diner Times Square",-73.985611,40.7565468
"944",943,"19 Kenmare Street New York, NY 10012","Contemporary American","Casual Dining","Ken & Cook",-73.994593,40.7206906
"945",944,"535 Hudson Street New York, NY 10014","Pizzeria","Casual Dining","WILD - West Village",-74.0063957,40.7345845
"946",945,"11 West 60th St. New York, NY 10023","Italian","Casual Dining","Gabriel's Bar & Restaurant",-73.9828696,40.7693649
"947",946,"254 West 23rd Street New York, NY 10011","American","Casual Elegant","East of Eighth Restaurant",-73.9977969,40.7447604
"948",947,"120 Essex Street New York, NY 10002","Fusion / Eclectic","Casual Dining","Essex",-73.987588,40.7191941
"949",948,"135 1st Avenue New York, NY 10003","Mediterranean","Home Style","Rustico",-73.9853298,40.7278855
"950",949,"131 Essex St New York, NY null","Italian","Casual Dining","Charrua",-73.9876176,40.7200486
"951",950,"354 Bowery New York, NY 10012","Mexican","Casual Dining","Hecho en Dumbo Chefs Table Menu Prix Fixe",-73.99208,40.726929
"952",951,"982 Amsterdam Ave New York, NY 10025","American","Casual Dining","Amity Hall Uptown",-73.9647008,40.8022031
"953",952,"231 E 50th Street New York, NY 10022","Italian","Casual Elegant","DEGREZIA RESTAURANT",-73.9694409,40.7554923
"954",953,"301 Church St. New York, NY 10013","Mexican","Casual Dining","Anejo Tribeca",-74.0042383,40.719262
"955",954,"334 Lexington Avenue New York, NY 10016","Italian","Casual Dining","House of Lasagna",-73.9775697,40.7497237
"956",955,"1343 2nd Avenue New York, NY 10021","French","Casual Dining","Jean Claude 2",-73.9592733,40.768006
"957",956,"196 Spring St. New York, NY 10012","Italian","Casual Dining","Piccola Cucina Osteria - Spring St.",-74.0032735,40.7249958
"958",957,"104 west 13 st New York, NY 10011","Syrian","Casual Dining","Salam Restaurant",-73.9979569,40.7367313
"959",958,"1483 Second Avenue New York, NY 10075","Italian","Casual Dining","Vero Uptown",-73.9561681,40.7722562
"960",959,"63 Bedford St. New York, NY 10014","Greek","Casual Elegant","Snack Taverna",-74.0048145,40.7310341
"961",960,"164 Mulberry Street New York, NY 10013","Italian","Casual Dining","Da Nico Ristorante - Manhattan Location",-73.9969004,40.7196293
"962",961,"477 Amsterdam Avenue New York, NY 10024","American","Casual Dining","Hi-Life Bar & Grill",-73.97623,40.7855119
"963",962,"17 W. 26th St New York, NY 10010","American","Casual Elegant","Maysville",-73.9895882,40.7441598
"964",963,"260 W 29th St New York, NY 10001","Italian","Casual Elegant","Biricchino",-73.9954972,40.7488187
"965",964,"200 Lenox Ave New York, NY 10027","French","Casual Elegant","Barawine",-73.9474649,40.8045666
"966",965,"8 West 36th Street New York, NY 10018","Korean","Casual Elegant","Kristalbelli",-73.9844621,40.7498904
"967",966,"2758 Broadway New York, NY 10025","American","Casual Dining","Macchina",-73.9675461,40.8010205
"968",967,"9 E 16th St New York, NY 10003","Mexican","Casual Elegant","Campeon",-73.9916859,40.7371461
"969",968,"1265 3rd Ave New York, NY 10021","Barbecue","Casual Dining","Dallas BBQ - Upper East Side",-73.9598896,40.7700887
"970",969,"259 West 42nd Street New York, NY 10036","Tex-Mex","Casual Dining","Chevys Fresh Mex - Times Square",-73.989331,40.7572095
"971",970,"462 2nd Avenue New York, NY 10016","Italian","Casual Dining","Patrizia's of 2nd Avenue",-73.9789431,40.7399505
"972",971,"159 West 54th Street New York, NY 10019","Comfort Food","Casual Dining","Faces and Names",-73.9809248,40.7635888
"973",972,"1407 Second Avenue New York, NY 10021","Persian","Casual Elegant","Persepolis",-73.9579965,40.7698353
"974",973,"772 9th Avenue New York, NY 10019","Steakhouse","Casual Dining","K Rico South American Steakhouse",-73.9880272,40.7643559
"975",974,"645 9th Avenue New York, NY 10036","Southern","Casual Dining","Southern Hospitality - Hell's Kitchen",-73.9913982,40.7606246
"976",975,"157 Bleecker Street New York, NY 10012","American","Casual Dining","Carroll Place",-73.9997101,40.7287019
"977",976,"202 7th Ave New York, NY 10011","French","Casual Dining","Cafe Champignon",-73.9962933,40.7432564
"978",977,"314 Bleecker Street New York, NY 10014","French","Casual Dining","AOC",-74.0041141,40.7327534
"979",978,"345 Greenwich St. New York, NY 10013","Vietnamese","Casual Elegant","VCafe",-74.010125,40.7184388
"980",979,"10 Little West 12th Street New York, NY 10014","European","Casual Elegant","Revel",-74.0068913,40.7396486
"981",980,"744 9th Avenue New York, NY 10019","Brazilian","Casual Dining","Rice N Beans Restaurant",-73.9885468,40.7635307
"982",981,"27 1/2 Morton Street New York, NY 10014","German","Casual Elegant","Doma na rohu",-74.0033491,40.7315375
"983",982,"104 East 30th St. New York, NY 10016","Modern European","Casual Elegant","Pepela",-73.9828438,40.7442268
"984",983,"158 West 72nd St. New York, NY 10023","Turkish","Casual Dining","Seven's Mediterranean Turkish Grill",-73.9809935,40.778024
"985",984,"99 1st Avenue New York, NY 10003","Peruvian","Casual Dining","Mancora",-73.9863562,40.7266116
"986",985,"365 West 46th Street New York, NY 10036","Sushi","Casual Dining","Sushi Seki Times Square",-73.9900759,40.7609554
"987",986,"803 9th Ave New York, NY 10019","Mexican","Casual Dining","Limon Jungle",-73.9877865,40.765606
"988",987,"15 West 21st Street New York, NY 10010","Italian","Casual Dining","Trattoria Zero Otto Nove",-73.9915684,40.7408377
"989",988,"29 East 28th Street New York, NY 10016","Asian","Casual Dining","Chef 28",-73.984934,40.7439096
"990",989,"253 Church Street New York, NY 10013","Korean","Casual Dining","Kori Tribeca",-74.0053358,40.7178692
"991",990,"38 W 39th Street New York, NY 10018","Cuban","Casual Elegant","Calle Dao",-73.9842216,40.7521591
"992",991,"913 Broadway 2nd Floor New York, NY 10010","Bar / Lounge / Bottle Service","Casual Elegant","Wined Up Wine Bar",-73.989859,40.7396272
"993",992,"208 1st Avenue New York, NY 10009","Mediterranean","Casual Dining","Balade",-73.9830324,40.7302641
"994",993,"319 East 53rd Street New York, NY 10022","Lebanese","Fine Dining","Al Bustan",-73.9661161,40.7565615
"995",994,"1043 2nd Ave New York, NY 10022","Italian","Casual Dining","Angelo's on 55th St",-73.9666083,40.7579643
"996",995,"324 Spring St New York, NY 10013","Tapas / Small Plates","Casual Dining","Kana Tapas Bar",-74.0094194,40.7258383
"997",996,"213 Front St. New York, NY 10038","Seafood","Casual Dining","Dorlan's Tavern",-74.0024981,40.7073286
"998",997,"72 Madison Avenue New York, NY 10016","American","Casual Elegant","Rocco Steakhouse",-73.9861214,40.7438607
"999",998,"259 Front St New York, NY 10038","Caf?","Casual Dining","Cowgirl Seahorse",-74.0004592,40.7081018
"1000",999,"350 West 50th Street New York, NY 10019","Korean","Casual Dining","Bann Restaurant",-73.9880747,40.7628948
"1001",1000,"474 3rd Street San Francisco, CA 94107","Indian","Casual Elegant","Ruchi",-122.3963625,37.7814356
"1002",1001,"16 W 48th Street New York, NY 10036","Korean","Casual Dining","New York Kimchi",-73.9792107,40.7576294
"1003",1002,"2143 Frederick Douglass Blvd. New York, NY 10026","American","Casual Elegant","Blujeen",-73.955643,40.804077
"1004",1003,"226 West 79th Street New York, NY 10024","Australian","Casual Elegant","Burke & Wills",-73.9795858,40.7833584
"1005",1004,"340 West 46th Street New York, NY 10036","French","Casual Elegant","Le Rivage",-73.9895726,40.7602192
"1006",1005,"1347 Second Avenue New York, NY 10021","Italian","Casual Elegant","Per Lei",-73.959204,40.768135
"1007",1006,"747 9th Avenue New York, NY 10019","Greek","Casual Dining","Uncle Nick's Greek Cuisine - Hell's Kitchen",-73.9890552,40.7639046
"1008",1007,"384 Broome St. New York, NY 10013","Italian","Casual Dining","Sal's Little Italy",-73.9965332,40.7206081
"1009",1008,"302 Bleecker Street New York, NY 10014","Greek","Casual Dining","Nisi",-74.0038562,40.7325031
"1010",1009,"1000 Main Street Belmar, NJ 07719","Contemporary American","Casual Elegant","Waves on Main - A contemporary Coastal American Steak and Seafood",-74.0253061,40.1791072
"1011",1010,"30 Rockefeller Center Concourse Level New York, NY 10112","Mediterranean","Casual Dining","Cucina & Co.",-73.9795135,40.7590788
"1012",1011,"52 William St. New York, NY 10005","American","Casual Dining","Bailey Restaurant and Bar",-74.0089239,40.706708
"1013",1012,"170 John Street New York, NY 10038","American","Casual Elegant","Trading Post NYC",-74.0042523,40.7059326
"1014",1013,"221 West 38th Street New York, NY 10018","Pizzeria","Casual Dining","Lazzara's Pizza Cafe",-73.9892709,40.7539608
"1015",1014,"1068 2nd Avenue New York, NY 10022","French","Casual Elegant","Paname French Restaurant",-73.9654394,40.7586831
"1016",1015,"97 Macdougal Street New York, NY 10012","Italian","Casual Dining","Monte's Trattoria",-74.001154,40.7296219
"1017",1016,"153 E 33rd Street New York, NY 10016","French","Home Style","La Tarte Flambee - Jardin",-73.9794314,40.7455949
"1018",1017,"538 Madison Avenue New York, NY 10020","French","Fine Dining","Caviar Russe",-73.9737901,40.7607442
"1019",1018,"1317 First Ave New York, NY 10021","Italian","Casual Dining","Fratelli Brick Oven Pizza & Wine Bar",-73.9569016,40.767009
"1020",1019,"337 West 14th Street New York, NY 10014","Italian","Casual Dining","Mulino a Vino",-74.0041121,40.7407524
"1021",1020,"190 - A Duane Street New York, NY 10013","Italian","Casual Elegant","Roc Restaurant",-74.0104963,40.7173643
"1022",1021,"7 West 20th Street New York, NY 10011","Italian","Casual Dining","ALEO RESTAURANT GARDEN DINING",-73.9917192,40.7402169
"1023",1022,"202 West 36th Street New York, NY 10018","Irish","Casual Dining","Pig n Whistle on 36th",-73.990229,40.7522785
"1024",1023,"3143 Broadway New York, NY 10027","Italian","Casual Dining","Bettolona",-73.9598515,40.8141911
"1025",1024,"141 W 10th St New York, NY 10014","American","Casual Dining","Bell Book & Candle",-74.0008942,40.7347337
"1026",1025,"151 2nd Avenue New York, NY 10003","Gastro Pub","Casual Dining","The Copper Still",-73.9872384,40.7295432
"1027",1026,"Waldorf Astoria New York 540 Lexington Avenue New York, NY 10022","Steak","Casual Elegant","Bull & Bear Steakhouse - Waldorf Astoria New York",-73.9728566,40.7562262
"1028",1027,"131 West 33rd Street New York, NY 10001","Irish","Casual Dining","Feile",-73.9896857,40.7499629
"1029",1028,"340 Lexington Ave New York, NY 10016","Kosher","Fine Dining","La Brochette Kosher Steakhouse",-73.9774857,40.7498776
"1030",1029,"127 West 43rd Street New York, NY 10036","American","Casual Dining","HB Burger",-73.9845582,40.7561504
"1031",1030,"190 1st Ave. New York, NY 10009","French","Casual Dining","tree bistro",-73.983512,40.729627
"1032",1031,"230 E. 51st Street New York, NY 10022","French","Home Style","Le Bateau Ivre",-73.9691818,40.7557468
"1033",1032,"220 Warrenton Street Rockport, ME 08456","Italian","Casual Dining","La Bella Vita Ristorante in enoteca Lounge",-69.0899988,44.1226983
"1034",1033,"913 Broadway New York, NY 10010","American","Casual Dining","Punch Restaurant",-73.989859,40.7396272
"1035",1034,"346 West 46th Street New York, NY 10036","Creole / Cajun / Southern","Casual Dining","Bourbon Street Bar & Grill",-73.9897824,40.7603107
"1036",1035,"2018 3rd Avenue New York, NY 10029","Cuban","Casual Dining","Amor Cubano",-73.9426588,40.7947602
"1037",1036,"46 Stone Street New York, NY 10004","American","Casual Dining","Route 66 Smokehouse",-74.0104846,40.7041771
"1038",1037,"1022A Lexington Avenue New York, NY 10020","French","Casual Elegant","Casimir & Co",-73.961971,40.7710969
"1039",1038,"1626 2nd Ave New York, NY 10028","Seafood","Casual Dining","La Pulperia - 2nd Ave",-73.9523275,40.7766202
"1040",1039,"66 Charlton Street New York, NY 10013","Italian","Casual Dining","San Marino Soho",-74.006115,40.72698
"1041",1040,"3 Greenwich Ave New York, NY 10011","Italian","Casual Dining","Olio e Piu",-73.9996546,40.7339259
"1042",1041,"184 8th Ave New York, NY 10011","Steakhouse","Casual Dining","Chuck & Blade",-73.9998325,40.7429533
"1043",1042,"688 10th Avenue New York, NY 10019","Cuban","Casual Elegant","Havana Social",-73.9923194,40.7634719
"1044",1043,"343 West Broadway New York, NY 10013","Argentinean","Casual Dining","Novecento New York",-74.0033613,40.7225542
"1045",1044,"307 East 84th Street New York, NY 10028","Italian","Casual Elegant","Italianissimo",-73.951963,40.776507
"1046",1045,"249 Centre Street New York, NY 10012","Wine Bar","Casual Dining","La Compagnie des Vins Surnaturels",-73.9981319,40.7205188
"1047",1046,"157 E Houston St. New York, NY 10002-1004","Latin / Spanish","Casual Dining","Macondo East",-73.9892194,40.7228081
"1048",1047,"Inside Battery Park across from 17 State St. New York, NY 10004","American","Casual Dining","Battery Gardens",-74.0139817,40.7028826
"1049",1048,"22 West 8th Street New York, NY 10011","Tapas / Small Plates","Casual Elegant","Amelie",-73.9976676,40.7326287
"1050",1049,"1272 Amsterdam Avenue New York, NY 10027","American","Casual Dining","Kitchenette - Uptown",-73.9582191,40.8112535
"1051",1050,"5 Gold St New York, NY 10038","Italian","Casual Dining","Giardino D'Oro",-74.0072267,40.7075608
"1052",1051,"54 West 55th Street New York, NY 10019","Italian","Casual Elegant","Il Corso (New York City)",-73.977199,40.762427
"1053",1052,"6 Times Square New York, NY 10036 New York, NY 10036","Contemporary American","Casual Elegant","Charlie Palmer at The Knick",-73.9841274,40.7592686
"1054",1053,"102 E 7th st New York, NY 10009","Basque","Casual Elegant","XyZ Pintxos y Botanas",-73.9850631,40.7265102
"1055",1054,"155 East 52nd Street New York, NY 10022","Japanese","Casual Dining","Restaurant Nippon",-73.9703594,40.7574943
"1056",1055,"1 Hudson Street New York, NY 10013","Italian","Casual Elegant","Acappella Northern Italian Cuisine",-74.0094254,40.7157941
"1057",1056,"5 East 54th St. New York, NY 10022","Steakhouse","Casual Elegant","Charlie Palmer Steak",-73.9747637,40.7608137
"1058",1057,"350 5th Avenue New York, NY 10118","American","Casual Dining","Heartland Brewery - Empire State Building",-73.9856554,40.7484404
"1059",1058,"255 5th Avenue New York, NY 10016","Steakhouse","Casual Elegant","Ben and Jack's on 5th Avenue",-73.9868772,40.7448911
"1060",1059,"21 East 9th Street New York, NY 10003","Italian","Casual Dining","Arte Restaurant",-73.9945561,40.7325061
"1061",1060,"788 Lexington Avenue New York, NY 10065","Italian","Casual Dining","Farinella Bakery Pizza",-73.9673452,40.763767
"1062",1061,"225-227 Front Street New York, NY 10038","Italian","Casual Dining","Barbalu",-74.0020404,40.7074747
"1063",1062,"41 Mercer St New York, NY 10013","Mediterranean","Casual Dining","Antique Garage",-74.0014297,40.7215206
"1064",1063,"11 East 12th Street New York, NY 10003","Steak","Fine Dining","Strip House Speakeasy",-73.9934347,40.734494
"1065",1064,"780 Third Ave New York, NY 10017","Italian","Casual Dining","AperiTivo Pizza Bar",-73.9718588,40.7550353
"1066",1065,"319 West 51st Street New York, NY 10019","Italian","Casual Dining","Maria Pia",-73.9865257,40.763468
"1067",1066,"474 Columbus Avenue New York, NY 10024","American","Casual Dining","Spring Natural Kitchen - UWS",-73.9740184,40.7845262
"1068",1067,"21 W. 9th Street New York, NY 10011","American","Fine Dining","Omar's",-73.9970043,40.733529
"1069",1068,"181 Duane Street New York, NY 10013","Italian","Home Style","Max - Tribeca",-74.0101375,40.7175595
"1070",1069,"308 East 86th Street New York, NY 10028","Greek","Casual Elegant","Ithaka",-73.9512894,40.7774825
"1071",1070,"124 WEST 57TH ST New York, NY 10019","American","Casual Elegant","Kingside",-73.9784333,40.7648526
"1072",1071,"460 Greenwich Street New York, NY 10013","Argentinean","Casual Elegant","Estancia 460",-74.0096509,40.7237676
"1073",1072,"277 Church street New York, NY 10013","Japanese","Home Style","Sakebar SHiGURE",-74.0047655,40.7185438
"1074",1073,"551 Amsterdam Ave New York, NY 10024","American","Casual Dining","Kirsh Bakery and Kitchen",-73.9746365,40.7882042
"1075",1074,"791 Lexington Avenue New York, NY 10065","American","Casual Elegant","August Restaurant",-73.9668523,40.7636724
"1076",1075,"355 East 78th Street New York, NY 10075","Japanese","Casual Dining","Iron Sushi - Upper East Side",-73.9535485,40.7719575
"1077",1076,"90 Chambers St New York, NY 10007","Japanese","Casual Dining","Kaede Japanese Restaurant",-74.0074319,40.7144705
"1078",1077,"84 E 4th St New York, NY 10003","Italian","Casual Dining","La Contrada",-73.9897577,40.7261931
"1079",1078,"52 Vanderbilt Avenue New York, NY 10017","Seafood","Casual Elegant","Ammos Estiatorio",-73.9773018,40.7542642
"1080",1079,"140 East 74th Street New York, NY 10021","Italian","Fine Dining","Vivolo",-73.9615546,40.7716846
"1081",1080,"208 East 58th Street New York, NY 10022","American","Casual Dining","Blooms Tavern",-73.9665718,40.7605121
"1082",1081,"171 3rd Avenue New York, NY 10003","Contemporary Asian","Casual Dining","Jack's Sliders and Sushi",-73.9858245,40.7347029
"1083",1082,"85 West St. New York, NY 10006","American","Casual Dining","Bill's Bar & Burger Downtown",-74.0144893,40.7095123
"1084",1083,"123 East 18th Street New York, NY 10003","Italian","Casual Dining","Paul & Jimmy's Ristorante",-73.9872922,40.7367659
"1085",1084,"172 Bleecker Street New York, NY 10012","Spanish","Casual Dining","Cafe Espanol",-74.0007195,40.7287636
"1086",1085,"102 North End Avenue New York, NY 10282","Mediterranean","Casual Elegant","ATRIO Wine Bar | Restaurant",-74.0152218,40.7150015
"1087",1086,"161 Lexington Ave New York, NY 10016","Mediterranean","Casual Dining","Lallisse Mediterranean Wine & Food",-73.9812076,40.743891
"1088",1087,"162 W. 56th Street New York, NY 10019","Greek","Casual Dining","Souvlaki GR Midtown",-73.9803449,40.7645708
"1089",1088,"115 East 60th Street New York, NY 10022","Mediterranean","Casual Elegant","Amali",-73.9686336,40.7632685
"1090",1089,"113 North Walnut Champaign, IL 61820","Italian","Casual Elegant","bacaro",-88.2426884,40.1169075
"1091",1090,"72 Macdougal Street New York, NY 10012","French","Casual Elegant","Chez Jacqueline",-74.0017735,40.7282564
"1092",1091,"5 West 21st Street New York, NY 10010","Contemporary American","Casual Elegant","Kat and Theo",-73.9907969,40.7405934
"1093",1092,"Macys at Herald Square 151 West 34th Street New York, NY 10001","Italian","Casual Elegant","Stella 34 Trattoria",-73.9895261,40.7507917
"1094",1093,"1643 Lexington Ave. New York, NY 10029","Mexican","Casual Dining","El Paso Mexican Restaurant",-73.9471365,40.7906846
"1095",1094,"117 E 60th Street New York, NY 10022","American","Casual Dining","The Bar Room",-73.9684763,40.7633602
"1096",1095,"414 E 9th St New York, NY 10009","Japanese","Fine Dining","Cagen",-73.9842523,40.7277388
"1097",1096,"194 Ave A New York, NY 10009","Mexican","Casual Dining","El Camion",-73.981051,40.7290824
"1098",1097,"157 East 55th Street New York, NY 10022","Indian","Casual Elegant","2 Darbar Grill",-73.9688386,40.759341
"1099",1098,"121 West 45th Street New York, NY 10036","Irish","Casual Dining","Connolly's Pub and Restaurant - 45th",-73.9835782,40.7573628
"1100",1099,"15 Stone St New York, NY 10004","Steakhouse","Casual Elegant","Nebraska Steakhouse",-74.012107,40.7041919
"1101",1100,"26 E 64th Street New York, NY 10065","Italian","Casual Elegant","Altesi Ristorante",-73.9695821,40.7667004
"1102",1101,"1071 5th Avenue The Guggenheim Museum New York, NY 10128","American","Casual Elegant","The Wright",-73.9506774,40.7826039
"1103",1102,"520 8th Avenue New York, NY 10018","American","Casual Elegant","The Houndstooth Pub",-73.9919341,40.753645
"1104",1103,"141 West 38th Street New York, NY 10018","Italian","Fine Dining","Arno Ristorante",-73.9879785,40.7533125
"1105",1104,"232 West 14th Street New York, NY 10011","American","Casual Dining","CK14 - The Crooked Knife at 14th Street",-74.001459,40.739011
"1106",1105,"11 East 53rd St. New York, NY 10022","Italian","Casual Elegant","Valbella Midtown",-73.9748551,40.7602446
"1107",1106,"9 E 17th Street New York, NY 10003","Italian","Casual Dining","Al Vicoletto",-73.991283,40.737726
"1108",1107,"41 West 57th St. New York, NY 10019","American","Casual Elegant","Betony",-73.9762526,40.7641992
"1109",1108,"1712 2nd Avenue New York, NY 10128","Mexican","Casual Dining","Selena Rosa",-73.9501698,40.7795252
"1110",1109,"228 West 39th Street New York, NY 10018","British","Casual Dining","Carraghers",-73.9895415,40.7544
"1111",1110,"136 Mulberry Street New York, NY 10013","Italian","Casual Dining","Paesano of Mulberry Street",-73.9974325,40.7185309
"1112",1111,"543 LaGuardia Pl New York, NY 10012","Cuban","Casual Dining","Favela Cubana",-73.9980822,40.7283929
"1113",1112,"311 Second Ave New York, NY 10003","Thai","Casual Dining","Lantern Thai Kitchen",-73.9833334,40.7350725
"1114",1113,"240 West 56th Street New York, NY 10019","Indian","Fine Dining","Benares - West Side",-73.9829296,40.7656519
"1115",1114,"38-40 Carmine Street New York, NY 10014","Asian","Casual Dining","Carma - NYC",-74.0031901,40.7299572
"1116",1115,"1076 1st Avenue New York, NY 10022","Steakhouse","Fine Dining","Four Cuts Steakhouse",-73.9618377,40.7593194
"1117",1116,"8 Stone Street New York, NY 10004","Italian","Casual Dining","Antica (Ancora)",-74.0123307,40.703861
"1118",1117,"605 West 48th St New York, NY 10036","Mexican","Casual Dining","Cantina Rooftop",-73.995986,40.765076
"1119",1118,"932 1st Ave New York, NY 10022","Greek","Casual Dining","Pathos Cafe",-73.9653009,40.7545427
"1120",1119,"558 11th Ave New York, NY 10036","Italian","Casual Dining","La Vela Dining & Bar",-73.9977192,40.7608991
"1121",1120,"331 West Broadway New York, NY 10013","Italian","Fine Dining","Il Mulino Prime",-74.0037402,40.7221808
"1122",1121,"2911 Broadway New York, NY 10025","American","Casual Dining","Bernheim & Schwartz",-73.9653429,40.8066004
"1123",1122,"8 W. 58th St. New York, NY 10019","Contemporary American","Casual Elegant","Beautique",-73.9742844,40.7638581
"1124",1123,"1 Delancey Street New York, NY 10002","French","Casual Dining","Sel Rrose",-73.9938395,40.7200076
"1125",1124,"1594 2nd Avenue New York, NY 10028","Italian","Casual Dining","Firenze",-73.9530867,40.7755882
"1126",1125,"569 Hudson Street New York, NY 10014","American","Casual Elegant","Philip Marie",-74.006232,40.73592
"1127",1126,"221 W 38th St. New York, NY 10018","Moroccan","Casual Dining","Tagine Fine Moroccan Cuisine",-73.9892709,40.7539608
"1128",1127,"238 Madison Avenue New York, NY 10016","French","Casual Dining","Madison Bistro",-73.9816569,40.7499362
"1129",1128,"214 East 52nd Street New York, NY 10022","Italian","Fine Dining","Fabio Cucina Italiana",-73.9691776,40.7565859
"1130",1129,"125 West 44th Street New York, NY 10036","Fish","Fine Dining","Hunt & Fish Club NYC",-73.984111,40.7568471
"1131",1130,"55 Grand Street New York, NY 10013","Mexican / Southwestern","Casual Elegant","Papatzul",-74.0036727,40.7221496
"1132",1131,"1479 York Ave. New York, NY 10075","Contemporary American","Casual Dining","Eastfield's",-73.951088,40.770987
"1133",1132,"24 Prince St. New York, NY 10012","Latin American","Casual Dining","Oficina Latina",-73.9946313,40.7227416
"1134",1133,"18 9th Avenue New York, NY 10014","American","Casual Dining","The Chester",-74.0057335,40.7398532
"1135",1134,"254 West 72nd Street New York, NY 10023","Caribbean","Casual Dining","Sugar Bar",-73.9838508,40.7793686
"1136",1135,"7 East 54 Street New York, NY 10022","Italian","Casual Elegant","Alfredo 100",-73.9745417,40.7609322
"1137",1136,"2 East 61st Street New York, NY 10065","French American","Casual Elegant","Perrine",-73.9720398,40.7651281
"1138",1137,"306 W 39th St New York, NY 10018","American","Casual Dining","Rattle N Hum West",-73.9917566,40.7554696
"1139",1138,"61 West 8th Street New York, NY 10011","Japanese","Casual Elegant","Neta",-73.9989613,40.7336414
"1140",1139,"246 10th Ave New York, NY 10001","Italian","Fine Dining","Bottino",-74.0033127,40.7484846
"1141",1140,"2701 Broadway New York, NY 10025","Indian","Fine Dining","Aangan",-73.9687851,40.7993945
"1142",1141,"173 Orchard Street New York, NY 10002","Latin American","Casual Dining","a casa fox",-73.9886231,40.7216456
"1143",1142,"1461 3rd Ave New York, NY 10028","Japanese","Casual Dining","Sushi Para",-73.9553411,40.7764588
"1144",1143,"9 East 45th Street New York, NY 10017","Irish","Casual Elegant","Eamonn's",-73.97852,40.755251
"1145",1144,"44 West 45th Street - Sofitel New York Sofitel New York New York, NY 10036","French","Casual Elegant","Gaby Restaurant at Sofitel Luxury Hotel - NY",-73.9932872,40.7602619
"1146",1145,"143 East 47th Street New York, NY 10017","American","Casual Dining","Foxy John's",-73.9728209,40.7544417
"1147",1146,"304 West 56 Street New York, NY 10019","Italian","Casual Dining","Bricco Restaurant",-73.9839938,40.7660956
"1148",1147,"253 5th Ave New York, NY 10016","Gastro Pub","Casual Dining","John Doe Bar & Kitchen",-73.9868634,40.7447145
"1149",1148,"168 W 4th St. New York, NY 10014","Spanish","Casual Dining","Tio Pepe",-74.0016583,40.7319679
"1150",1149,"42 W 48th St New York, NY 10036","Irish","Casual Dining","Sean's Bar & Kitchen",-73.9801252,40.7579118
"1151",1150,"32 W 33rd St New York, NY 10001","Seafood","Casual Dining","CajunSea",-73.9869651,40.7481476
"1152",1151,"140 Charles Street New York, NY 10014","Egyptian","Casual Elegant","Casa La Femme",-74.0081123,40.7339445
"1153",1152,"45 Murray Street New York, NY 10007","Indian","Casual Dining","Benares - Tribeca",-74.0091724,40.7141993
"1154",1153,"80 West 3rd Street New York, NY 10012","Gastro Pub","Casual Elegant","Amity Hall",-73.9989147,40.7296359
"1155",1154,"1048 3rd Avenue New York, NY 10065","Seafood","Casual Elegant","Theo's Restaurant & Oyster Bar",-73.9654727,40.7634106
"1156",1155,"27 East 21st Street New York, NY 10010","Contemporary American","Casual Elegant","Giorgio's of Gramercy",-73.9886371,40.7396979
"1157",1156,"50 West 77th St. New York, NY 10024","Italian","Casual Dining","Scaletta Restaurant",-73.976098,40.7802505
"1158",1157,"234 E 4th St New York, NY 10009","Latin American","Casual Dining","Secara",-73.983137,40.7233126
"1159",1158,"Two West Street New York, NY 10004","American","Casual Dining","2 West",-74.0173997,40.7055158
"1160",1159,"361 Greenwich Street New York, NY 10013","Spanish","Casual Dining","Tablao",-74.0100914,40.7190271
"1161",1160,"109 East 56th St. New York, NY 10022","Steakhouse","Fine Dining","American Cut Midtown",-73.9703719,40.7607865
"1162",1161,"177 Henry St New York, NY 10002","French","Casual Dining","Les Enfants de Boheme",-73.9886596,40.7135252
"1163",1162,"220 Bowery New York, NY 10002","Contemporary American","Casual Dining","Pearl and Ash",-73.9937772,40.722007
"1164",1163,"150 West 47th Street New York, NY 10036","Irish","Casual Dining","Langan's",-73.9838169,40.7586324
"1165",1164,"10 Columbus Circle # 4 New York, NY 10019","American","Casual Dining","Ascent Lounge New York",-73.9831903,40.7684251
"1166",1165,"2 Bank Street New York, NY 10003","Latin American","Casual Elegant","Macondo West",-74.0016459,40.7370572
"1167",1166,"24 East 21st Street New York, NY 10010","Mediterranean","Casual Elegant","Almayass",-73.9890289,40.7393637
"1168",1167,"226 W 52nd St New York, NY 10019","American","Casual Elegant","Supernova - Novotel Hotel Times Square",-73.9837907,40.7626833
"1169",1168,"381 Lenox Avenue New York, NY 10027","Sushi","Fine Dining","Sushi Inoue",-73.9435716,40.8105416
"1170",1169,"250 West 47th Street New York, NY 10036","Italian","Casual Dining","Scarlatto",-73.9867021,40.7598419
"1171",1170,"174 Grand Street New York, NY 10013","American","Casual Dining","Onieals",-73.9978321,40.7197109
"1172",1171,"2787 Broadway New York, NY 10025","American","Casual Dining","107 West",-73.9682175,40.8027645
"1173",1172,"147 West 43rd Street New York, NY 10036","Italian","Casual Dining","Tony's Di Napoli - Midtown",-73.9854018,40.7565018
"1174",1173,"180 Spring Street New York, NY 10012","French","Casual Elegant","Bistro Les Amis",-74.0026195,40.7247015
"1175",1174,"127 Greene Street New York, NY 10012","Asian","Casual Dining","Kelley and Ping",-73.9991357,40.7255924
"1176",1175,"416 Amsterdam Avenue New York, NY 10024","Mediterranean","Casual Dining","TLV Mediterranean Resto-Bar & Lounge",-73.9782,40.783853
"1177",1176,"7 E 36th St New York, NY 10016","Gastro Pub","Casual Dining","5th & MAD",-73.9830132,40.749605
"1178",1177,"177 Mulberry Street New York, NY 10013","Italian","Casual Dining","Grotta Azzurra",-73.9970444,40.7203258
"1179",1178,"53 Delancey St New York, NY 10002","Contemporary Asian","Casual Dining","Doka Square",-73.9915172,40.7193177
"1180",1179,"144 West 139th Street New York, NY 10030","French","Casual Dining","Ponty Bistro - Harlem",-73.9412806,40.8175939
"1181",1180,"6 East 36th Street New York, NY 10016","Spanish","Fine Dining","Toledo Restaurant",-73.9831118,40.749308
"1182",1181,"179 Prince St New York, NY 10012","Japanese","Casual Dining","Nagomi",-74.0018842,40.7264709
"1183",1182,"324 Bowery New York, NY 10012","Cuban","Casual Elegant","Agozar Cuban Restaurant",-73.9924354,40.7254802
"1184",1183,"76 West 3rd Street New York, NY 10012","Gastro Pub","Casual Dining","The Half Pint",-73.9985343,40.7295121
"1185",1184,"27 E. 23rd St. New York, NY 10010","Italian","Casual Dining","Osteria del Principe",-73.9872337,40.740845
"1186",1185,"158 West 58th Street New York, NY 10019","Contemporary American","Casual Dining","Red 58",-73.978792,40.7656726
"1187",1186,"337 East 10th Street New York, NY 10009","Italian","Casual Dining","Gnocco",-73.980247,40.7271558
"1188",1187,"214 E. 49th Street New York, NY 10017","Italian","Casual Dining","Da Noi - Midtown",-73.9706971,40.7547549
"1189",1188,"560 Third Avenue New York, NY 10016","American","Casual Dining","Duke's - Murray Hill",-73.9767947,40.7480839
"1190",1189,"12 Saint Marks Place New York, NY 10003","Vegetarian/ Vegan","Casual Dining","VSPOT Organic - East Village",-73.9893082,40.7290009
"1191",1190,"159 West 26th Street New York, NY 10001","American","Casual Dining","Crompton Ale House",-73.9933768,40.7458602
"1192",1191,"373 W. 46th St. New York, NY 10036","Comfort Food","Casual Dining","Hourglass Tavern",-73.990338,40.7609507
"1193",1192,"506 LaGuardia Place New York, NY 10012","Austrian","Casual Elegant","Freud - NYC",-73.9995358,40.7277238
"1194",1193,"188 Avenue A New York, NY 10009","Lebanese","Casual Elegant","Au Za'atar",-73.9811862,40.7288601
"1195",1194,"10 Columbus Circle,Fourth Floor New York, NY 10019","Contemporary American","Casual Elegant","Center Bar",-78.8834461,42.8847388
"1196",1195,"190 Seventh Ave. New York, NY 10011","Italian","Casual Dining","EOLO: Seasonal Sicilian Kitchen",-73.9967056,40.7430866
"1197",1196,"151 E 57th New York, NY 10022","American","Casual Dining","57 Belle House",-73.9682882,40.7608166
"1198",1197,"49 West 44th Street New York, NY 10036","French American","Casual Elegant","Triomphe",-73.9819585,40.7558788
"1199",1198,"709 8th Avenue New York, NY 10065","Mediterranean","Casual Elegant","L'ybane",-73.9888296,40.7591212
"1200",1199,"10 East 16th Street New York, NY 10003","Seafood","Casual Elegant","City Crab Shack",-73.992049,40.7368256
"1201",1200,"124 E 34th St New York, NY 10016","American","Casual Dining","Wine 34",-73.9800769,40.7465185
"1202",1201,"120 West 44th Street New York, NY 10036","Gastro Pub","Casual Dining","The Long Room",-73.9843318,40.7563739
"1203",1202,"167 Mulberry Street New York, NY 10013","Italian","Casual Dining","La Mela",-73.9973512,40.7199259
"1204",1203,"109 Ludlow St. New York, NY 10002","Mexican","Casual Dining","Los Feliz",-73.9889627,40.7194163
"1205",1204,"1370 York Ave New York, NY 10021","Italian","Casual Dining","Finestra",-73.9528696,40.7675092
"1206",1205,"6 Murray St New York, NY 10007","American","Casual Dining","Manhattan Proper",-74.0080433,40.7132703
"1207",1206,"252 W 29th St New York, NY 10001","American","Casual Dining","Haymaker Bar & Kitchen",-73.9953108,40.7486658
"1208",1207,"641 Hudson St New York, NY 10014","Contemporary American","Fine Dining","Gunter Seeger NY",-74.0057897,40.7390283
"1209",1208,"1393A 2nd Avenue New York, NY 10021","Indian","Fine Dining","Rangoli - NYC",-73.9582662,40.7692944
"1210",1209,"1293 Lexington Ave New York, NY 10128","American","Casual Dining","Bocado Cafe",-73.954838,40.7802325
"1211",1210,"647 East 11 Street New York, NY 10009","Contemporary American","Casual Dining","Virginia's",-73.9772537,40.7267074
"1212",1211,"1575 Second Avenue New York, NY 10028","Italian","Casual Elegant","Gina La Fornarina - East",-73.9539789,40.7752028
"1213",1212,"337B West Broadway New York, NY 10013","Contemporary American","Casual Dining","Sanctuary T",-74.0035309,40.7224306
"1214",1213,"585 3rd Ave New York, NY 10016","Japanese","Casual Dining","Hiroshi Japanese Asian Fusion Lounge",-73.9758786,40.748367
"1215",1214,"38 MacDougal St. New York, NY 10012","American","Casual Dining","Hundred Acres",-74.0028001,40.7270447
"1216",1215,"132 W 47th Street New York, NY 10036","American","Casual Elegant","Haven Rooftop",-73.9832823,40.7584117
"1217",1216,"239 Park Avenue South New York, NY 10003","American","Casual Dining","Big Daddy's - Gramercy Park",-73.9876783,40.7378436
"1218",1217,"186 Avenue A New York, NY 10009","Tapas / Small Plates","Casual Dining","Cork 'n Fork",-73.9812623,40.728807
"1219",1218,"858 9th Ave New York, NY 10019","American","Casual Dining","Route 66",-73.9861193,40.7669203
"1220",1219,"412 Amsterdam Avenue New York, NY 10024","Italian","Casual Dining","Bettola",-73.9782929,40.78373
"1221",1220,"406 Broome Street New York, NY 10013","American","Casual Dining","Brinkley's Broome St.",-73.9977804,40.7210382
"1222",1221,"932 8th Ave New York, NY 10019","Contemporary American","Casual Dining","Matt's Grill",-73.9834746,40.7654657
"1223",1222,"207 West 36th Street New York, NY 10018","American","Casual Elegant","Delmonico's Kitchen",-73.9901605,40.7526176
"1224",1223,"496 Avenue of the Americas New York, NY 10011","Sushi","Casual Dining","MI-NE SUSHI TOTOYA",-73.9972871,40.7362556
"1225",1224,"108 Eight Avenue New York, NY 10011","Italian","Casual Dining","Chelsea Ristorante",-74.0015999,40.740631
"1226",1225,"347 East 54th Street New York, NY 10022","American","Casual Dining","Sutton Inn",-73.964754,40.7568137
"1227",1226,"135 West 50th Street New York, NY 10020","American","Casual Dining","Bobby Van's Grill - 50th Street",-73.9822828,40.7609173
"1228",1227,"218 E 53rd St New York, NY 10022","Gastro Pub","Casual Elegant","Hudson Malone",-73.9687044,40.7571805
"1229",1228,"29a Clinton Street New York, NY 10002","American","Casual Dining","Thelma on Clinton",-73.9845274,40.720397
"1230",1229,"2 East 55th Street New York, NY 10022","International","Casual Elegant","Astor Court",-73.9746128,40.7613979
"1231",1230,"21 West 35th Street New York, NY 10001","American","Casual Dining","O'Reilly's Bar & Kitchen",-73.9851283,40.7498101
"1232",1231,"230 E. 44th Street New York, NY 10017","Italian","Casual Elegant","Piccolo Fiore",-73.9721395,40.7512764
"1233",1232,"224 East 53rd Street New York, NY 10022","Italian","Casual Dining","Angelo Bellini Italian Restaurant",-73.968488,40.7571357
"1234",1233,"33 Avenue B New York, NY 10009","Tapas / Small Plates","Casual Dining","Poco",-73.9829221,40.7224497
"1235",1234,"13 East 17th Street New York, NY 10003","Comfort Food","Casual Dining","Lillie's",-73.9911145,40.7376751
"1236",1235,"153 East 45th Street New York, NY 10017","Italian","Casual Elegant","Gente",-73.9734886,40.7531015
"1237",1236,"323 West Broadway New York, NY 10013","Italian","Casual Elegant","MAMO Restaurant",-74.0039054,40.7218954
"1238",1237,"33 Carmine St. New York, NY 10014","American","Casual Dining","Ellary's Greens",-74.0032287,40.7302857
"1239",1238,"135 West 45th Street New York, NY 10036","American","Casual Dining","T45 at the Hyatt Time Square",-73.9841839,40.7575491
"1240",1239,"184 Lexington Avenue New York, NY 10016","Italian","Fine Dining","Marcony",-73.9811557,40.7448984
"1241",1240,"287 Hudson Street New York, NY 10013","Italian","Casual Dining","ADORO LEI",-74.007916,40.725612
"1242",1241,"240 West 54th Street New York, NY 10019","Mexican","Casual Dining","Iguana",-73.9832105,40.7642063
"1243",1242,"11 East 13th St New York, NY 10003","French","Casual Dining","Le Midi Bar & Restaurant",-73.9931853,40.7351805
"1244",1243,"801 9th Ave New York, NY 10019","American","Casual Dining","Georgio's Country Grill",-73.987812,40.7656009
"1245",1244,"2479 Broadway New York, NY 10025","Greek","Casual Dining","Telio",-73.9738835,40.792409
"1246",1245,"365 Park Avenue South New York, NY 10016","Italian","Casual Elegant","Bread & Tulips",-73.9845816,40.7421034
"1247",1246,"19-21 East 36th Street New York, NY 10016","Mediterranean","Casual Elegant","Barbes Restaurant",-73.9823202,40.7493285
"1248",1247,"1361 Lexington Ave New York, NY 10128","Turkish","Casual Elegant","Peri Ela",-73.953428,40.7821805
"1249",1248,"10 Pell St New York, NY 10013","Chinese","Casual Dining","Famous Sichuan",-73.9975937,40.7148507
"1250",1249,"115 E. 57th Street New York, NY 10022","Sushi","Casual Dining","Nare Sushi",-73.9702151,40.7616522
"1251",1250,"110 St. Marks Place New York, NY 10003","French American","Casual Dining","David's Cafe",-73.9843237,40.7269605
"1252",1251,"130 W 47th Street New York, NY 10036","American","Casual Elegant","Tender Restaurant",-73.9832204,40.7583519
"1253",1252,"406 East 64th St New York, NY 10065","Seafood","Casual Dining","Fatty Fish",-73.9592555,40.7623539
"1254",1253,"825 3rd Ave New York, NY 10022","American","Casual Dining","Ashton's Alley",-73.9701462,40.7558722
"1255",1254,"423 Amsterdam Avenue New York, NY 10024","American","Casual Dining","Sarabeth's West",-73.9774214,40.7838771
"1256",1255,"135 Christopher Street New York, NY 10014","Sushi","Casual Dining","Amber West Village",-74.0069567,40.7331524
"1257",1256,"177 9th Ave. New York, NY 10011","French","Casual Dining","La Bergamote",-74.0027869,40.7450393
"1258",1257,"337 East 49th Street New York, NY 10017","Italian","Fine Dining","Il Postino",-73.9674258,40.7538149
"1259",1258,"2 Ave of the Americas New York, NY 10013","American","Casual Elegant","Roxy Bar",-74.004781,40.7193813
"1260",1259,"518 W 27th Street New York, NY 10001","Mediterranean","Casual Dining","La Piscine",-74.0034123,40.750402
"1261",1260,"1078 First Avenue New York, NY 10022","Italian","Casual Dining","Il Valentino Osteria",-73.9617785,40.7593057
"1262",1261,"986 2nd Avenue New York, NY 10022","American","Casual Dining","Atwood Kitchen and Bar Room",-73.9672667,40.7561737
"1263",1262,"508 West 42nd St. New York, NY 10036","Contemporary American","Casual Dining","The Lindeman",-73.9963024,40.7597852
"1264",1263,"420 Park Avenue South New York, NY 10016","Italian","Casual Elegant","Asellina Ristorante",-73.9841241,40.743899
"1265",1264,"169 9th Avenue New York, NY 10011","Italian","Casual Dining","Bocca Di Bacco (Chelsea - 20th St.)",-74.0030186,40.7446144
"1266",1265,"50 Commerce St New York, NY 10014","Contemporary American","Casual Dining","Fifty",-74.0057019,40.7313627
"1267",1266,"615 1/2 Hudson Street New York, NY 10014","Contemporary American","Casual Elegant","Bespoke Kitchen",-74.0059104,40.7378928
"1268",1267,"483 Columbus Ave New York, NY 10024","Italian","Casual Elegant","Bellini Italian Restaurant & Brick Oven Pizza - West Side",-73.9731926,40.7845765
"1269",1268,"246 Spring Street New York, NY 10013","Japanese","Fine Dining","Koi - Soho",-74.0054946,40.7253319
"1270",1269,"98 Kenmare St New York, NY 10012","American","Casual Dining","Spring Street Natural",-73.9969476,40.7211201
"1271",1270,"109 Washington Street New york, NY 10028","Contemporary American","Casual Dining","Schilling",-74.0139894,40.7085747
"1272",1271,"64 Carmine New York, NY 10014","French American","Casual Dining","Gentilly",-74.004259,40.7297563
"1273",1272,"154 Central Park South New York, NY 10019","American","Casual Elegant","SOUTHGATE Bar & Restaurant",-73.9781489,40.7662755
"1274",1273,"333 Hudson St New York, NY 10013","Comfort Food","Casual Dining","Westville Hudson",-74.0076894,40.7271573
"1275",1274,"123 West 45th Street New York, NY 10036","American","Casual Dining","The Perfect Pint - West",-73.9837397,40.7574076
"1276",1275,"472 9th Avenue New York, NY 10018","Thai","Casual Dining","Thai Select",-73.9949369,40.7547758
"1277",1276,"145 E. 50th St New York, NY 10022","Italian","Casual Elegant","Bistango at The Kimberly Hotel",-73.9714035,40.7563217
"1278",1277,"152 E 46th Street New York, NY 10017","Indian","Casual Elegant","1 Darbar",-73.973531,40.7535127
"1279",1278,"237 West 54th Street New York, NY 10019","Steakhouse","Fine Dining","Empire Steakhouse - 237 West 54 Street off of Broadway",-73.983043,40.7645319
"1280",1279,"785 9th Ave New York, NY 10019","Gastro Pub","Casual Elegant","Brickyard Gastropub",-73.9881594,40.7650802
"1281",1280,"857 9th Ave. New York, NY 10019","Mediterranean","Casual Dining","kilo",-73.9865514,40.7670877
"1282",1281,"202 West 14th Street New York, NY 10011","Italian","Casual Dining","La Carbonara",-74.0003269,40.7385932
"1283",1282,"174 Avenue B New York, NY 10009","Italian","Casual Dining","Eleven B",-73.9797462,40.7274489
"1284",1283,"165 East 33rd Street New York, NY 10016","Sushi","Casual Dining","Nomado 33",-73.9790168,40.7454813
"1285",1284,"118 2nd Ave New York, NY 10003","Israeli","Casual Elegant","Bar Virage",-73.9877911,40.7279802
"1286",1285,"1055 Lexington Avenue New York, NY 10021","American","Casual Dining","Eats",-73.960648,40.7721981
"1287",1286,"17 West 19th St. New York, NY 10011","Italian","Casual Elegant","Zio",-73.9924795,40.7396687
"1288",1287,"32 West 37th New York, NY 10018","Steakhouse","Casual Dining","Frankie & Johnnie's Steakhouse - Manhattan",-73.984917,40.7508297
"1289",1288,"50 Ave. A New York, NY 10009","Mexican","Casual Dining","Villa Cemita",-73.9847896,40.7237715
"1290",1289,"89 East 42nd Street Grand Central Terminal West Balcony New York, NY 10017","Italian","Casual Elegant","Cipriani - Dolci",-73.9697795,40.7519846
"1291",1290,"140 E 41st St New York, NY 10017","American","Casual Elegant","Public House - New York",-73.9761481,40.750368
"1292",1291,"957 Second Avenue New York, NY 10022","Korean","Casual Dining","BarKogi",-73.9684761,40.7554274
"1293",1292,"728 8th Ave New York, NY 10036","Italian","Casual Dining","Daniela's",-73.9880027,40.759241
"1294",1293,"118 10th Avenue New York, NY 10011","American","Casual Dining","The Park",-74.00634,40.7441958
"1295",1294,"212 East 42nd street New York, NY 10017","American","Casual Dining","The LCL Bar & Kitchen NYC",-73.9740114,40.7502017
"1296",1295,"16 East 46th St. New York, NY 10017","Steakhouse","Casual Dining","Wolfgang's Steakhouse Boutique",-73.978104,40.755387
"1297",1296,"31 Saint Marks Place New York, NY 10003","Japanese","Home Style","Hakata Hot Pot NYC",-73.9882073,40.7290672
"1298",1297,"6 E 32nd St New York, NY 10016","Sushi","Casual Dining","IchiUmi - NYC",-73.9849793,40.7465366
"1299",1298,"23 Grand Street New York, NY 10013","American","Casual Elegant","David Burke Kitchen",-74.0049238,40.7227827
"1300",1299,"886 Amsterdam Avenue New York, NY 10025","Italian","Casual Dining","Arco Cafe",-73.9672297,40.7987219
"1301",1300,"2240 Highland Avenue South Birmingham, AL 35205","Mediterranean","Casual Elegant","Bottega",-86.7900009,33.502495
"1302",1301,"20 Christopher Street New York, NY 10014","French","Casual Dining","Delice & Sarrasin",-74.0006559,40.7338142
"1303",1302,"396 West Broadway New York, NY 10012","French","Casual Dining","Laduree SOHO",-74.0024593,40.724291
"1304",1303,"4 East 36th Street New York, NY 10016","Mediterranean","Casual Elegant","Arabesque",-73.9831537,40.7493304
"1305",1304,"300 Spring St New York, NY 10013","American","Casual Elegant","Union Bar & Kitchen",-74.0079757,40.7257199
"1306",1305,"90 Thompson St New York, NY 10012","Italian","Casual Elegant","SAN CARLO  Osteria Piemonte",-74.0021269,40.7251702
"1307",1306,"222 East 39th Street New York, NY 10016","Japanese","Fine Dining","Tempura Matsui",-73.974945,40.7481355
"1308",1307,"238 West 56th Street New York, NY 10019","Sushi","Casual Dining","Fuji Sushi",-73.9828738,40.7655937
"1309",1308,"381 3rd Avenue New York, NY 10016","Sushi","Casual Dining","Amber Kips Bay",-73.9809179,40.7414918
"1310",1309,"605 Hudson Street New York, NY 10014","French","Casual Dining","La Ripaille",-74.0060032,40.7372748
"1311",1310,"1471 2nd Ave New York, NY 10075","American","Casual Dining","Copper Kettle Kitchen",-73.95652,40.771876
"1312",1311,"45 East 30th St. New York, NY 10016","Barbecue","Casual Dining","Mason Jar",-73.983592,40.7449695
"1313",1312,"50 Central Park South New York, NY 10019","American","Casual Elegant","Auden Bistro & Bar",-73.9760488,40.7653101
"1314",1313,"64 Downing Street New York, NY 10014","Mediterranean","Casual Dining","Gardenia",-74.0048741,40.7288284
"1315",1314,"117 W. 58th Street New York, NY 10019","Italian","Fine Dining","Nino's Tuscany",-73.9772655,40.7654611
"1316",1315,"53 Irving Place New York, NY 10003","Mediterranean","Casual Dining","Pierre Loti Union Square",-73.9875442,40.7361063
"1317",1316,"254 10th Avenue New York, NY 10001","Asian","Casual Dining","Chop Shop",-74.0031555,40.7486894
"1318",1317,"117 West 57th Street New York, NY 10019","Italian","Casual Dining","Angelo's on 57th St.",-73.9779504,40.7649161
"1319",1318,"359 West Broadway New York, NY 10013","Comfort Food","Home Style","Cupping Room Cafe",-74.0030486,40.723
"1320",1319,"132 West 27th Street New York, NY 10001","Italian","Elegant Dining","Impero Caffe by Scott Conant",-73.9926305,40.7459181
"1321",1320,"143 Mulberry Street New York, NY 10013","Italian","Casual Elegant","Sofia's of Little Italy",-73.9977919,40.7188971
"1322",1321,"15 West 18th New York, NY 10011","American","Casual Dining","The Bar Room at The Gander",-73.9928086,40.7391553
"1323",1322,"169 Sullivan Street New York, NY 10012","American","Casual Dining","Sullivan Bistro",-74.0009847,40.7279278
"1324",1323,"936 Amsterdam Ave New York, NY 10025","American","Casual Dining","The Ellington",-73.9658808,40.8007015
"1325",1324,"54 Thompson Street New York, NY 10012","Mediterranean","Casual Elegant","Pera Soho",-74.0032178,40.7238079
"1326",1325,"508 Greenwich Street New York, NY 10013","American","Casual Dining","Houseman Restaurant",-74.0094023,40.7257239
"1327",1326,"80 2nd Avenue New York, NY 10003","Italian","Casual Dining","Cacio e Vino",-73.9888896,40.7263882
"1328",1327,"531 Hudson Street New York, NY 10014","Contemporary American","Casual Dining","Swine",-74.0064599,40.7342457
"1329",1328,"154 Orchard Street New York, NY 10002","European","Casual Dining","Red Compass",-73.9886032,40.7207582
"1330",1329,"184 Prince St. New York, NY 10025","Italian","Casual Dining","Piccola Cucina Enoteca - Prince St.",-74.0021516,40.7262802
"1331",1330,"863 Ninth Avenue New York, NY 10019","Italian","Casual Dining","Bello Restaurant",-73.986521,40.767623
"1332",1331,"121 E 17th Street New York, NY 10003","American","Casual Elegant","The House",-73.9877365,40.7361284
"1333",1332,"903 8th Avenue New York, NY 10019","Italian","Casual Elegant","Da Tommaso NYC",-73.9848223,40.7645702
"1334",1333,"111 W 17th ST New York, NY 10011","Mexican","Casual Dining","Serenata",-73.9960065,40.7396931
"1335",1334,"161 East Houston St New York, NY 10002","Mediterranean","Casual Dining","Mezetto",-73.9890183,40.7228137
"1336",1335,"718 Amsterdam Avenue New York, NY 10025","Italian","Casual Dining","Acqua - NYC",-73.971253,40.793391
"1337",1336,"46 West 46 Street New York, NY 10036","Italian","Casual Dining","Ceci Italian Restaurant",-73.9811731,40.7567064
"1338",1337,"558 Broome Street (closer to Varick) New York, NY 10013","French","Casual Elegant","La Sirene",-74.0094471,40.7217861
"1339",1338,"1496 2nd Avenue New York, NY 10075","Mediterranean","Casual Dining","MELA East",-73.9553718,40.7724461
"1340",1339,"144 West 46th Street New York, NY 10036","American","Casual Dining","Pig n Whistle-46th St.",-73.9841748,40.7579406
"1341",1340,"258 West 15th Street New York, NY 10011","Mediterranean","Casual Dining","Pierre Loti Chelsea",-74.0016546,40.7400621
"1342",1341,"122 East 27th Street New York, NY 10016","Italian","Fine Dining","I Trulli",-73.983681,40.742097
"1343",1342,"216 7th Ave New York, NY 10011","Wine Bar","Casual Dining","Zagara Restaurant and Wine Bar",-73.9962409,40.7438065
"1344",1343,"305 Bleecker St New York, NY 10014","Italian","Casual Dining","Suprema Provisions",-74.0036155,40.7326925
"1345",1344,"63 Cooper Sq New York, NY 10003","Japanese","Casual Dining","Ise Japanese Restaurant",-73.9899057,40.7290645
"1346",1345,"150 East 50th Street New York, NY 10022","American","Casual Dining","KB50",-73.9715473,40.7558688
"1347",1346,"132 4th Avenue New York, NY 10003","American","Casual Dining","The Fourth",-73.9901924,40.7333427
"1348",1347,"116 E 60th Street New York, NY 10022","Contemporary American","Casual Elegant","Blu on Park Restaurant",-73.9687531,40.7629833
"1349",1348,"209 Mulberry Street New York, NY 10012","French","Casual Dining","Tartinery",-73.9964579,40.7218195
"1350",1349,"765 Washington Street New York, NY 10014","Tapas / Small Plates","Casual Dining","Entwine",-74.0079761,40.737397
"1351",1350,"47 8th Avenue New York, NY 10014","French American","Casual Dining","Barrio 47",-74.0040836,40.7385272
"1352",1351,"518 West 27th Street New York, NY 10001","French","Casual Elegant","The Americano",-74.0034123,40.750402
"1353",1352,"1295 Madison Avenue New York, NY 10128","American","Casual Dining","Sarabeth's East",-73.9556092,40.784769
"1354",1353,"100 Simcoe St Toronto, ON M5H 3L2","Steakhouse","Fine Dining","Michael's on Simcoe",-79.3867668,43.6483301
"1355",1354,"371 7th Avenue New York, NY 10001","Contemporary American","Casual Elegant","Niles New York City",-73.9916558,40.7487055
"1356",1355,"10 E 39th Street New York, NY 10016","Japanese","Casual Dining","Norikoh",-73.9816058,40.7510714
"1357",1356,"6 Platt St New York, NY 10038","Contemporary American","Casual Elegant","The Ketch",-74.0063872,40.7073433
"1358",1357,"65 2nd Ave New York, NY 10003","Italian","Casual Dining","Double Zero",-73.9898081,40.7260895
"1359",1358,"77 Warren Street New York, NY 10007","American","Casual Dining","Warren 77",-74.0103619,40.7150571
"1360",1359,"156 7th Ave New York, NY 10011","American","Casual Dining","elmo",-73.9975453,40.7419958
"1361",1360,"52 West 33rd Street New York, NY 10001","French","Casual Dining","Petit Poulet",-73.9875332,40.7486859
"1362",1361,"47 West 8th Street New York, NY 10011","American","Casual Elegant","Greenwich Project",-73.9984867,40.733333
"1363",1362,"15 West 18th New York, NY 10011","American","Casual Elegant","The Gander",-73.9928086,40.7391553
"1364",1363,"38 West 26th New York, NY 10010","American","Casual Dining","Flatiron Hall",-73.9907407,40.7442852
"1365",1364,"1754 Second Avenue New York, NY 10128","American","Casual Elegant","The Milton",-73.9489629,40.7812318
"1366",1365,"1535 Broadway New York, NY 10036","American","Casual Dining","Crossroads American Kitchen and Bar",-73.9862475,40.7586115
"1367",1366,"5 West 8th St. New York, NY 10011","Mediterranean","Casual Dining","Margaux",-73.9967989,40.7326526
"1368",1367,"55 Irving Place New York, NY 10003","Mediterranean","Casual Dining","Adalya",-73.9874304,40.7362291
"1369",1368,"85 10th Ave New York, NY 10011","Gastro Pub","Casual Elegant","Sons & Daughters",-74.0079542,40.7432086
"1370",1369,"1641 2nd Ave New York, NY 10028","Contemporary American","Elegant Dining","The Daisy",-73.9523979,40.7773907
"1371",1370,"101 West 57th St. New York, NY 10019","American","Casual Elegant","The Wayfarer",-73.9773463,40.7646625
"1372",1371,"417 Amsterdam Ave New York, NY 10024","Italian","Casual Dining","Pretto",-73.9777007,40.7836064
"1373",1372,"235 W. 46th St. New York, NY 10036","Contemporary American","Casual Dining","Paramount Bar and Grill",-73.986987,40.759642
"1374",1373,"522 Hudson Street New York, NY 10014","American","Casual Dining","The Quarter",-74.0060337,40.7339688
"1375",1374,"310 West Broadway New York, NY 10013","American","Casual Dining","Grand Bar & Lounge at Soho Grand Hotel",-74.0045064,40.7220519
"1376",1375,"246 W 38th St New York, NY 10018","American","Casual Dining","District Tap House",-73.9905013,40.7540393
"1377",1376,"44 West 44th Street New York, NY 10036","American","Casual Elegant","Forty Four",-73.9823094,40.7555978
"1378",1377,"733 Ninth Ave New York, NY 10019","American","Casual Dining","Gossip Restaurant",-73.989394,40.7633711
"1379",1378,"344 East 59th Street New York, NY 10022","French American","Casual Dining","Uncorked Bar & Grill",-73.9626226,40.7596437
"1380",1379,"78 Carmine Street New York, NY 10014","Contemporary French","Casual Elegant","GLOO",-74.0046663,40.7294869
"1381",1380,"310 West Broadway New York, NY 10013","American","Casual Dining","Grand Bar & Lounge at Soho Grand Hotel",-74.0045064,40.7220519
"1382",1381,"246 W 38th St New York, NY 10018","American","Casual Dining","District Tap House",-73.9905013,40.7540393
"1383",1382,"44 West 44th Street New York, NY 10036","American","Casual Elegant","Forty Four",-73.9823094,40.7555978
"1384",1383,"733 Ninth Ave New York, NY 10019","American","Casual Dining","Gossip Restaurant",-73.989394,40.7633711
"1385",1384,"344 East 59th Street New York, NY 10022","French American","Casual Dining","Uncorked Bar & Grill",-73.9626226,40.7596437
"1386",1385,"507 9th Ave at 38th St. New York, NY 10018","Italian","Casual Elegant","iL Punto",-73.99464,40.7561446
"1387",1386,"78 2nd Avenue New York, NY 10003","Mediterranean","Casual Dining","Nomad (East Village)",-73.9889211,40.7263365
"1388",1387,"200 E 3rd Street New York, NY 10009","Southern","Casual Dining","Root & Bone",-73.9833023,40.7226894
"1389",1388,"1640 Second Ave New York, NY 10028","American","Casual Dining","Five Mile Stone",-73.951868,40.777205
"1390",1389,"109 East 42nd Street New York, NY 10017","Contemporary American","Casual Dining","New York Central",-73.9763424,40.7520393
"1391",1390,"570 10th Ave New York, NY 10036","Mediterranean","Casual Elegant","Green Fig",-73.9954561,40.7591568
"1392",1391,"575 Hudson New York, NY 10014","American","Casual Dining","Hudson Hound",-74.006185,40.7361456
"1393",1392,"157 West 47th Street New York, NY 10036","American","Casual Dining","Maple",-73.9837169,40.7590695
"1394",1393,"2901 Ocean Park Blvd. Santa Monica, CA 90405","Italian","Casual Dining","Il Forno",-118.4546141,34.0201137
"1395",1394,"421 West 13th Street New York, NY 10014","Italian","Fine Dining","Valbella",-74.0069627,40.7409764
"1396",1395,"308 W 50th St New York, NY 10019","American","Casual Dining","Blue Dog Kitchen & Bar",-73.9869679,40.7624439
"1397",1396,"809 Ninth Avenue New York, NY 10019","Contemporary American","Casual Dining","Annabel",-73.9875562,40.7657968
"1398",1397,"239 3rd Avenue New York, NY 10003","American","Casual Elegant","The Stand",-73.9843661,40.736684
"1399",1398,"224 W 51st New York, NY 10019","Italian","Casual Elegant","Azalea",-73.9848896,40.7623132
"1400",1399,"343 West 46th Street New York, NY 10036","Contemporary American","Casual Elegant","Don't Tell Mama NYC",-73.9894769,40.7606259
"1401",1400,"118 East 40th Street New York, NY 10016","Contemporary American","Casual Elegant","Bedford & Co.",-73.9775843,40.7501895
"1402",1401,"190 Avenue B New York, NY 10009","Contemporary American","Casual Dining","Kingsley",-73.9793238,40.7279836
"1403",1402,"1085 2nd Avenue New York, NY 10022","American","Casual Elegant","Bottle and Bine",-73.965401,40.759606
"1404",1403,"856 9th Avenue New York, NY 10019","Fish","Casual Elegant","Blue Seafood Bar",-73.9861658,40.7668613
"1405",1404,"252 W 37th ST New York, NY 10018","American","Casual Dining","District Social",-73.9914546,40.7535849
